{
"type": "FeatureCollection",
"name": "argiles",
"crs": { "type": "name", "properties": { "name": "urn:ogc:def:crs:OGC:1.3:CRS84" } },
"features": [
{ "type": "Feature", "properties": { "id": "2", "exposition": null }, "geometry": { "type": "Polygon", "coordinates": [ [ [ 2.1165135836822, 48.889931527354733 ], [ 2.116835582744455, 48.888698509036068 ], [ 2.116985842787245, 48.888280034850297 ], [ 2.117049409647105, 48.887991538402879 ], [ 2.117298824874921, 48.887132701228055 ], [ 2.117443589153952, 48.886767155481152 ], [ 2.117595807065543, 48.886100627580355 ], [ 2.117991141575795, 48.885001849635785 ], [ 2.118282072667029, 48.88448331327092 ], [ 2.118552810198848, 48.884209512584043 ], [ 2.11900215125462, 48.883704838314458 ], [ 2.119302797773496, 48.883469705103685 ], [ 2.119714633431035, 48.883075018375798 ], [ 2.11984470077091, 48.882919395091918 ], [ 2.119925831736007, 48.882749943183917 ], [ 2.119954856285934, 48.88257327758366 ], [ 2.119898786754434, 48.882309856026559 ], [ 2.119797132377945, 48.882145289216169 ], [ 2.119569248737591, 48.881939162947646 ], [ 2.119639040146025, 48.881893388111827 ], [ 2.11978205192293, 48.881931415790177 ], [ 2.120042047352873, 48.881970330173907 ], [ 2.120441063761458, 48.881964633896061 ], [ 2.120820486510752, 48.881882982983221 ], [ 2.121147808486834, 48.881732371611626 ], [ 2.121840210692178, 48.881223897541147 ], [ 2.121980447157276, 48.881074373836 ], [ 2.122182052923418, 48.880937652614705 ], [ 2.122528529621211, 48.880619160017233 ], [ 2.122708875283075, 48.880508653891525 ], [ 2.123291666104286, 48.880058391717299 ], [ 2.124060421476917, 48.879393217994817 ], [ 2.125198564082699, 48.878588668235416 ], [ 2.125527981075202, 48.878335811941795 ], [ 2.125951882729719, 48.877956418641588 ], [ 2.126239600412296, 48.87772521637509 ], [ 2.12670744546794, 48.877394646128508 ], [ 2.126976612773378, 48.87717346045612 ], [ 2.127725180906563, 48.876753863970258 ], [ 2.128233529499862, 48.876416106355784 ], [ 2.12880318346283, 48.876081254257301 ], [ 2.1291636829553, 48.875845262787536 ], [ 2.129855625253577, 48.875502042545463 ], [ 2.132229081105121, 48.874489334341831 ], [ 2.133151723485243, 48.874171400529406 ], [ 2.13372572659512, 48.874009075243258 ], [ 2.134440293226479, 48.873776189861807 ], [ 2.135621003262545, 48.873463623823604 ], [ 2.136507648679504, 48.873329948596449 ], [ 2.137360280091115, 48.873234839917387 ], [ 2.137886279960155, 48.873193361045352 ], [ 2.138295094186716, 48.873175568186454 ], [ 2.138636902336962, 48.873191172499084 ], [ 2.139594820979812, 48.873283677430699 ], [ 2.140200900868479, 48.873313845859279 ], [ 2.140612021741646, 48.873354324034146 ], [ 2.141553229378127, 48.87354372883874 ], [ 2.143241926838293, 48.874018286564258 ], [ 2.143793041231173, 48.874227102168454 ], [ 2.145052138389596, 48.874768331532444 ], [ 2.145499795962205, 48.874938583844127 ], [ 2.146272630396964, 48.8753042579552 ], [ 2.146818947386014, 48.875602987766833 ], [ 2.147093768401435, 48.875793389540227 ], [ 2.14768267662622, 48.876144933940068 ], [ 2.148035613357809, 48.876388848222042 ], [ 2.148418725737509, 48.876616018678966 ], [ 2.148585159194728, 48.876726326906009 ], [ 2.14908360992384, 48.877125785818016 ], [ 2.149805326816658, 48.877593745805846 ], [ 2.150210672701153, 48.877896720066573 ], [ 2.15067138096913, 48.878339421853291 ], [ 2.151169345375026, 48.878856556494981 ], [ 2.151848424761073, 48.879501887115921 ], [ 2.152414346119447, 48.880177150395184 ], [ 2.152853530408975, 48.88066219902737 ], [ 2.153299571292492, 48.881301542229878 ], [ 2.153455156788395, 48.881548578403859 ], [ 2.157326574719372, 48.880798590027247 ], [ 2.157030010935813, 48.880342971031006 ], [ 2.157323742565522, 48.88018501438404 ], [ 2.157485728640682, 48.88004327157666 ], [ 2.157591030088259, 48.879901024452941 ], [ 2.15758769369018, 48.879894277987958 ], [ 2.155596675935523, 48.87710983639888 ], [ 2.15555067691935, 48.877056956476544 ], [ 2.155323071733373, 48.876727174067696 ], [ 2.153708115270951, 48.874468368949927 ], [ 2.153449349559867, 48.874131795134886 ], [ 2.152742008239456, 48.873116989385174 ], [ 2.15274188, 48.87311681 ], [ 2.152194810981487, 48.872503866086902 ], [ 2.152155411625813, 48.87245972208428 ], [ 2.150385546360287, 48.870865585632913 ], [ 2.14891072, 48.87186650000001 ], [ 2.14816177, 48.87147805 ], [ 2.14668618, 48.87117164 ], [ 2.14501872, 48.870513099999989 ], [ 2.14449694, 48.8709051 ], [ 2.14342822, 48.87056469 ], [ 2.14163192, 48.87028201 ], [ 2.13731483, 48.87024828 ], [ 2.1357922, 48.87023639 ], [ 2.13258762, 48.87044615 ], [ 2.13067712, 48.87096471 ], [ 2.12857484, 48.87186138 ], [ 2.12488576, 48.8740406 ], [ 2.12438569, 48.87442817 ], [ 2.12087652, 48.87731727 ], [ 2.11978197, 48.878103359999983 ], [ 2.11872965, 48.878889760000014 ], [ 2.11601445, 48.88132139 ], [ 2.11365748, 48.884403140000011 ], [ 2.11120525, 48.88689776 ], [ 2.11062553, 48.88730356 ], [ 2.11015963, 48.88751324 ], [ 2.11483772, 48.88933943 ], [ 2.11649786466585, 48.89005372003102 ], [ 2.1165135836822, 48.889931527354733 ] ] ] } },
{ "type": "Feature", "properties": { "id": "2", "exposition": null }, "geometry": { "type": "MultiPolygon", "coordinates": [ [ [ [ 2.157588163525355, 48.879897083102001 ], [ 2.157680025248178, 48.880023395625493 ], [ 2.157584873689258, 48.879890334450984 ], [ 2.157588163525355, 48.879897083102001 ] ] ], [ [ [ 2.157978020951655, 48.880342474706744 ], [ 2.15816597000583, 48.880509110091239 ], [ 2.158318478419524, 48.880606410306228 ], [ 2.15831848, 48.88060641 ], [ 2.157680219976517, 48.880023658239466 ], [ 2.157978020951655, 48.880342474706744 ] ] ], [ [ [ 2.152155411625813, 48.87245972208428 ], [ 2.152194810981487, 48.872503866086902 ], [ 2.15215541, 48.87245972 ], [ 2.15039136, 48.87086164 ], [ 2.150385546360287, 48.870865585632913 ], [ 2.152155411625813, 48.87245972208428 ] ] ], [ [ [ 2.153449349559867, 48.874131795134886 ], [ 2.153708115270951, 48.874468368949927 ], [ 2.152742008239456, 48.873116989385174 ], [ 2.153449349559867, 48.874131795134886 ] ] ], [ [ [ 2.15555067691935, 48.877056956476544 ], [ 2.155596675935523, 48.87710983639888 ], [ 2.155323071733373, 48.876727174067696 ], [ 2.15555067691935, 48.877056956476544 ] ] ] ] } }
]
}
