{
"type": "FeatureCollection",
"name": "commune",
"crs": { "type": "name", "properties": { "name": "urn:ogc:def:crs:OGC:1.3:CRS84" } },
"features": [
{ "type": "Feature", "properties": { "code_insee": "78190", "nom": "Croissy-sur-Seine" }, "geometry": { "type": "Polygon", "coordinates": [ [ [ 2.13038839, 48.87641814 ], [ 2.13006078, 48.87586895 ], [ 2.12009592, 48.88494348 ], [ 2.11966773, 48.88599078 ], [ 2.11818742, 48.89078062 ], [ 2.11483772, 48.88933943 ], [ 2.11015963, 48.88751324 ], [ 2.11062553, 48.88730356 ], [ 2.11120525, 48.88689776 ], [ 2.11365748, 48.88440314 ], [ 2.11601445, 48.88132139 ], [ 2.11872965, 48.87888976 ], [ 2.11978197, 48.87810336 ], [ 2.12087652, 48.87731727 ], [ 2.12438569, 48.87442817 ], [ 2.12488576, 48.8740406 ], [ 2.12857484, 48.87186138 ], [ 2.13067712, 48.87096471 ], [ 2.13258762, 48.87044615 ], [ 2.1357922, 48.87023639 ], [ 2.13731483, 48.87024828 ], [ 2.14163192, 48.87028201 ], [ 2.14342822, 48.87056469 ], [ 2.14449694, 48.8709051 ], [ 2.14501872, 48.8705131 ], [ 2.14668618, 48.87117164 ], [ 2.14816177, 48.87147805 ], [ 2.14891072, 48.8718665 ], [ 2.15039136, 48.87086164 ], [ 2.15215541, 48.87245972 ], [ 2.15274188, 48.87311681 ], [ 2.1576802, 48.88002364 ], [ 2.15831848, 48.88060641 ], [ 2.15153229, 48.88192103 ], [ 2.14501825, 48.88341528 ], [ 2.14198086, 48.88394215 ], [ 2.14052137, 48.88429412 ], [ 2.13991227, 48.88434821 ], [ 2.13633691, 48.88515617 ], [ 2.1349404, 48.885406 ], [ 2.13402703, 48.88366455 ], [ 2.13414757, 48.88363214 ], [ 2.13038839, 48.87641814 ] ] ] } }
]
}
