{
"type": "FeatureCollection",
"name": "espaces_verts",
"crs": { "type": "name", "properties": { "name": "urn:ogc:def:crs:OGC:1.3:CRS84" } },
"features": [
{ "type": "Feature", "properties": { "nom": "Parc des Berges", "categlib": "Square et jardin public", "statouvlib": "Ouvert", "surftotha": 1.26, "surface_cartographiee_ha": 1.26 }, "geometry": { "type": "Polygon", "coordinates": [ [ [ 2.137475926163944, 48.870845187897231 ], [ 2.137475264457118, 48.871157501273046 ], [ 2.137598327153925, 48.871622404209035 ], [ 2.137793727296249, 48.872075929334379 ], [ 2.137901144403464, 48.872124294572075 ], [ 2.138031843418864, 48.872128210028876 ], [ 2.137973054163173, 48.871866034546045 ], [ 2.138059080794667, 48.871572183087189 ], [ 2.138061132796455, 48.871568961058827 ], [ 2.138948358093962, 48.871533609148976 ], [ 2.139462831198252, 48.871447410546118 ], [ 2.139426160912725, 48.87125911182418 ], [ 2.139304211835718, 48.870780418011201 ], [ 2.139264839735632, 48.870785302626217 ], [ 2.137922545088878, 48.87082888655965 ], [ 2.13778815197164, 48.8708437491252 ], [ 2.137475926163944, 48.870845187897231 ] ] ] } },
{ "type": "Feature", "properties": { "nom": "Square des Blanchisseuses", "categlib": "Square et jardin public", "statouvlib": "Ouvert", "surftotha": 0.11, "surface_cartographiee_ha": 0.11 }, "geometry": { "type": "Polygon", "coordinates": [ [ [ 2.14333030327916, 48.876742878293754 ], [ 2.143887111652234, 48.876562617524534 ], [ 2.143695278385483, 48.876350737291681 ], [ 2.143169099123027, 48.876574290263903 ], [ 2.143203756090306, 48.876607536652095 ], [ 2.14333030327916, 48.876742878293754 ] ] ] } },
{ "type": "Feature", "properties": { "nom": "Parc Chanorier", "categlib": "Square et jardin public", "statouvlib": "Ouvert", "surftotha": 1.78, "surface_cartographiee_ha": 1.78 }, "geometry": { "type": "Polygon", "coordinates": [ [ [ 2.152380506509218, 48.878060874648675 ], [ 2.151827814027924, 48.877279288085404 ], [ 2.149359627810421, 48.878287668379365 ], [ 2.149880799600912, 48.878870732436958 ], [ 2.152380506509218, 48.878060874648675 ] ] ] } },
{ "type": "Feature", "properties": { "nom": "Parc du Prieuré", "categlib": "Square et jardin public", "statouvlib": "Ouvert", "surftotha": 0.29, "surface_cartographiee_ha": 0.29 }, "geometry": { "type": "Polygon", "coordinates": [ [ [ 2.15245048950192, 48.877724304331153 ], [ 2.152512144013678, 48.877790392880257 ], [ 2.152673337081067, 48.877960734156339 ], [ 2.152698829191926, 48.877994528892614 ], [ 2.153017667016558, 48.877910626024246 ], [ 2.15307977918058, 48.877911065465028 ], [ 2.153105293185928, 48.877911245966125 ], [ 2.15363433305774, 48.877814650009398 ], [ 2.15350166853531, 48.877634849083151 ], [ 2.153479611107618, 48.87761143577535 ], [ 2.153353751656486, 48.877477843093907 ], [ 2.153317706487205, 48.877440148883885 ], [ 2.15245048950192, 48.877724304331153 ] ] ] } },
{ "type": "Feature", "properties": { "nom": "Parc Leclerc", "categlib": "Square et jardin public", "statouvlib": "Ouvert", "surftotha": 0.33, "surface_cartographiee_ha": 0.33 }, "geometry": { "type": "Polygon", "coordinates": [ [ [ 2.145648931101315, 48.877348522943471 ], [ 2.145555661394619, 48.877199359065486 ], [ 2.145674352845964, 48.877150165072614 ], [ 2.145678530396985, 48.877148433046315 ], [ 2.145642547241035, 48.87712509604728 ], [ 2.145546448857194, 48.877062770936526 ], [ 2.145346122880818, 48.876856737166641 ], [ 2.145374561325942, 48.876842776223 ], [ 2.145204817843951, 48.876663952907514 ], [ 2.14477061445456, 48.876843714336779 ], [ 2.145314178433136, 48.877449005408749 ], [ 2.145410515749872, 48.877411290654813 ], [ 2.145635872701841, 48.877645922506851 ], [ 2.145824522892901, 48.877594652790826 ], [ 2.145648931101315, 48.877348522943471 ] ] ] } },
{ "type": "Feature", "properties": { "nom": "Parc de la Blonde Paresseuse", "categlib": "Square et jardin public", "statouvlib": "Ouvert", "surftotha": 0.67, "surface_cartographiee_ha": 0.67 }, "geometry": { "type": "Polygon", "coordinates": [ [ [ 2.132927159697836, 48.875681492484112 ], [ 2.133332154253541, 48.87558579435818 ], [ 2.133074650115942, 48.875153881048952 ], [ 2.132768444787045, 48.874606463646444 ], [ 2.132427943564022, 48.874732031938116 ], [ 2.131935325104866, 48.875043057744037 ], [ 2.132256251806143, 48.875250564617744 ], [ 2.132457234948383, 48.875482282709811 ], [ 2.132470308390086, 48.875741487492171 ], [ 2.132927159697836, 48.875681492484112 ] ] ] } },
{ "type": "Feature", "properties": { "nom": "Ile de la Chaussée", "categlib": "Parc sportif", "statouvlib": "Ouvert", "surftotha": 13.16, "surface_cartographiee_ha": 0.33 }, "geometry": { "type": "Polygon", "coordinates": [ [ [ 2.14496889338354, 48.870564774006795 ], [ 2.146158332326089, 48.870991606680761 ], [ 2.147228066116826, 48.871529875893927 ], [ 2.147417779142531, 48.871652768818066 ], [ 2.147797461301955, 48.871659660076148 ], [ 2.14804663330522, 48.871448664799928 ], [ 2.147842711685632, 48.871396629506265 ], [ 2.146908908114097, 48.871224495255106 ], [ 2.146686184938515, 48.8711716440448 ], [ 2.146511733639218, 48.871084960885334 ], [ 2.146106898172482, 48.87091389284717 ], [ 2.145952291842776, 48.870864224250305 ], [ 2.145018715075395, 48.87051310358752 ], [ 2.14496889338354, 48.870564774006795 ] ] ] } },
{ "type": "Feature", "properties": { "nom": "Square du Souvenir", "categlib": "Square et jardin public", "statouvlib": "Ouvert", "surftotha": 0.06, "surface_cartographiee_ha": 0.06 }, "geometry": { "type": "Polygon", "coordinates": [ [ [ 2.138075700306072, 48.872697028525856 ], [ 2.137970568116656, 48.872614731737286 ], [ 2.137833234759873, 48.872524677054443 ], [ 2.137742504286715, 48.872491407254422 ], [ 2.137674010027014, 48.872493423047828 ], [ 2.137633809992241, 48.872509440657637 ], [ 2.137604934267693, 48.872530559180454 ], [ 2.13760270165645, 48.872550614147713 ], [ 2.137824863634135, 48.87280059661677 ], [ 2.138075700306072, 48.872697028525856 ] ] ] } }
]
}
