{
"type": "FeatureCollection",
"name": "iris",
"crs": { "type": "name", "properties": { "name": "urn:ogc:def:crs:OGC:1.3:CRS84" } },
"features": [
{ "type": "Feature", "properties": { "code_iris": "781900101", "nom_iris": "Plaine des Courlis", "type_iris": "H" }, "geometry": { "type": "MultiPolygon", "coordinates": [ [ [ [ 2.11978197, 48.87810336 ], [ 2.11872965, 48.87888976 ], [ 2.11601445, 48.88132139 ], [ 2.11365748, 48.88440314 ], [ 2.11120525, 48.88689776 ], [ 2.11062553, 48.88730356 ], [ 2.11015963, 48.88751324 ], [ 2.11483772, 48.88933943 ], [ 2.11818742, 48.89078062 ], [ 2.11966773, 48.88599078 ], [ 2.12009592, 48.88494348 ], [ 2.13006078, 48.87586895 ], [ 2.13038839, 48.87641814 ], [ 2.13174422, 48.87655029 ], [ 2.13193018, 48.87651837 ], [ 2.13198959, 48.87655387 ], [ 2.13247083, 48.87655826 ], [ 2.13328128, 48.87652546 ], [ 2.13336622, 48.87658363 ], [ 2.13342078, 48.87674591 ], [ 2.13440657, 48.87658306 ], [ 2.13491822, 48.87664432 ], [ 2.13514474, 48.87663337 ], [ 2.13524777, 48.87658735 ], [ 2.13538009, 48.87641922 ], [ 2.13555512, 48.87638901 ], [ 2.13682043, 48.87671831 ], [ 2.13691972, 48.87665068 ], [ 2.13807009, 48.87420461 ], [ 2.13848383, 48.87317782 ], [ 2.13857404, 48.87316408 ], [ 2.13774228, 48.87209865 ], [ 2.13760019, 48.87178734 ], [ 2.13734842, 48.87085469 ], [ 2.13731483, 48.87024828 ], [ 2.1357922, 48.87023639 ], [ 2.13258762, 48.87044615 ], [ 2.13067712, 48.87096471 ], [ 2.12857484, 48.87186138 ], [ 2.12488576, 48.8740406 ], [ 2.12438569, 48.87442817 ], [ 2.12087652, 48.87731727 ], [ 2.11978197, 48.87810336 ] ] ] ] } },
{ "type": "Feature", "properties": { "code_iris": "781900102", "nom_iris": "Ouest", "type_iris": "H" }, "geometry": { "type": "MultiPolygon", "coordinates": [ [ [ [ 2.13038839, 48.87641814 ], [ 2.13414757, 48.88363214 ], [ 2.13402703, 48.88366455 ], [ 2.1349404, 48.885406 ], [ 2.13633691, 48.88515617 ], [ 2.13991227, 48.88434821 ], [ 2.14052137, 48.88429412 ], [ 2.14198086, 48.88394215 ], [ 2.14501825, 48.88341528 ], [ 2.15153229, 48.88192103 ], [ 2.14961844, 48.87979127 ], [ 2.14743995, 48.88026053 ], [ 2.14285383, 48.88127823 ], [ 2.13838877, 48.8824684 ], [ 2.13817246, 48.88243716 ], [ 2.13787251, 48.88259869 ], [ 2.13732946, 48.88047769 ], [ 2.13697914, 48.87783736 ], [ 2.13689443, 48.8767782 ], [ 2.13682043, 48.87671831 ], [ 2.13555512, 48.87638901 ], [ 2.13538009, 48.87641922 ], [ 2.13524777, 48.87658735 ], [ 2.13514474, 48.87663337 ], [ 2.13491822, 48.87664432 ], [ 2.13440657, 48.87658306 ], [ 2.13342078, 48.87674591 ], [ 2.13336622, 48.87658363 ], [ 2.13328128, 48.87652546 ], [ 2.13247083, 48.87655826 ], [ 2.13198959, 48.87655387 ], [ 2.13193018, 48.87651837 ], [ 2.13174422, 48.87655029 ], [ 2.13038839, 48.87641814 ] ] ] ] } },
{ "type": "Feature", "properties": { "code_iris": "781900103", "nom_iris": "Centre Ville", "type_iris": "H" }, "geometry": { "type": "MultiPolygon", "coordinates": [ [ [ [ 2.13682043, 48.87671831 ], [ 2.13689443, 48.8767782 ], [ 2.13697914, 48.87783736 ], [ 2.13732946, 48.88047769 ], [ 2.13787251, 48.88259869 ], [ 2.13817246, 48.88243716 ], [ 2.13838877, 48.8824684 ], [ 2.14285383, 48.88127823 ], [ 2.14743995, 48.88026053 ], [ 2.1467977, 48.87959493 ], [ 2.14687086, 48.87954059 ], [ 2.14687743, 48.87947229 ], [ 2.14672755, 48.87929944 ], [ 2.14651915, 48.87911898 ], [ 2.14634572, 48.87913483 ], [ 2.14505185, 48.87787999 ], [ 2.14456985, 48.87800426 ], [ 2.14354371, 48.87672433 ], [ 2.14397858, 48.87656376 ], [ 2.14286857, 48.87541183 ], [ 2.14180659, 48.87581613 ], [ 2.14128977, 48.87524133 ], [ 2.14056172, 48.87548703 ], [ 2.13857404, 48.87316408 ], [ 2.13848383, 48.87317782 ], [ 2.13807009, 48.87420461 ], [ 2.13691972, 48.87665068 ], [ 2.13682043, 48.87671831 ] ] ] ] } },
{ "type": "Feature", "properties": { "code_iris": "781900104", "nom_iris": "Vieux Croissy", "type_iris": "H" }, "geometry": { "type": "MultiPolygon", "coordinates": [ [ [ [ 2.15153229, 48.88192103 ], [ 2.15831848, 48.88060641 ], [ 2.1576802, 48.88002364 ], [ 2.15274188, 48.87311681 ], [ 2.15215541, 48.87245972 ], [ 2.15039136, 48.87086164 ], [ 2.14891072, 48.8718665 ], [ 2.14816177, 48.87147805 ], [ 2.14668618, 48.87117164 ], [ 2.14501872, 48.8705131 ], [ 2.14449694, 48.8709051 ], [ 2.14342822, 48.87056469 ], [ 2.14163192, 48.87028201 ], [ 2.13731483, 48.87024828 ], [ 2.13734842, 48.87085469 ], [ 2.13760019, 48.87178734 ], [ 2.13774228, 48.87209865 ], [ 2.13857404, 48.87316408 ], [ 2.14056172, 48.87548703 ], [ 2.14128977, 48.87524133 ], [ 2.14180659, 48.87581613 ], [ 2.14286857, 48.87541183 ], [ 2.14397858, 48.87656376 ], [ 2.14354371, 48.87672433 ], [ 2.14456985, 48.87800426 ], [ 2.14505185, 48.87787999 ], [ 2.14634572, 48.87913483 ], [ 2.14651915, 48.87911898 ], [ 2.14672755, 48.87929944 ], [ 2.14687743, 48.87947229 ], [ 2.14687086, 48.87954059 ], [ 2.1467977, 48.87959493 ], [ 2.14743995, 48.88026053 ], [ 2.14961844, 48.87979127 ], [ 2.15153229, 48.88192103 ] ] ] ] } }
]
}
