{
"type": "FeatureCollection",
"name": "nappes",
"crs": { "type": "name", "properties": { "name": "urn:ogc:def:crs:OGC:1.3:CRS84" } },
"features": [
{ "type": "Feature", "properties": { "classe": "Zones potentiellement sujettes aux inondations de cave" }, "geometry": { "type": "Polygon", "coordinates": [ [ [ 2.133870510384067, 48.870528285049495 ], [ 2.133873275295302, 48.870362006254339 ], [ 2.13258762, 48.87044615 ], [ 2.13232623093313, 48.870517100299296 ], [ 2.133870510384067, 48.870528285049495 ] ] ] } },
{ "type": "Feature", "properties": { "classe": "Zones potentiellement sujettes aux inondations de cave" }, "geometry": { "type": "Polygon", "coordinates": [ [ [ 2.133870510384067, 48.870528285049495 ], [ 2.133833126226722, 48.872776421491636 ], [ 2.137241194341892, 48.872801034533467 ], [ 2.137278431428923, 48.870552897079151 ], [ 2.133870510384067, 48.870528285049495 ] ] ] } },
{ "type": "Feature", "properties": { "classe": "Zones potentiellement sujettes aux débordements de nappe" }, "geometry": { "type": "Polygon", "coordinates": [ [ [ 2.133870510384067, 48.870528285049495 ], [ 2.137278431428923, 48.870552897079151 ], [ 2.137283480760565, 48.870248035393622 ], [ 2.1357922, 48.87023639 ], [ 2.133873275295302, 48.870362006254339 ], [ 2.133870510384067, 48.870528285049495 ] ] ] } },
{ "type": "Feature", "properties": { "classe": "Zones potentiellement sujettes aux inondations de cave" }, "geometry": { "type": "Polygon", "coordinates": [ [ [ 2.154208569969276, 48.877418915408107 ], [ 2.155825833612689, 48.87743033099207 ], [ 2.154244305543052, 48.875218351488208 ], [ 2.154208569969276, 48.877418915408107 ] ] ] } },
{ "type": "Feature", "properties": { "classe": "Zones potentiellement sujettes aux débordements de nappe" }, "geometry": { "type": "Polygon", "coordinates": [ [ [ 2.147465417923578, 48.872874291469614 ], [ 2.147391816646742, 48.877370558632613 ], [ 2.15080019172574, 48.877394785540339 ], [ 2.150836846855212, 48.875146653258867 ], [ 2.154210119338846, 48.875170535134004 ], [ 2.15274188, 48.87311681 ], [ 2.152557698164131, 48.872910451978164 ], [ 2.147465417923578, 48.872874291469614 ] ] ] } },
{ "type": "Feature", "properties": { "classe": "Zones potentiellement sujettes aux débordements de nappe" }, "geometry": { "type": "Polygon", "coordinates": [ [ [ 2.147490552130718, 48.871338672622528 ], [ 2.14668618, 48.87117164 ], [ 2.145264557843806, 48.870610192748281 ], [ 2.144893015985338, 48.870607538978852 ], [ 2.14449694, 48.8709051 ], [ 2.14409142224416, 48.870775935648581 ], [ 2.144057340203014, 48.872849969522591 ], [ 2.147465417923578, 48.872874291469614 ], [ 2.147490552130718, 48.871338672622528 ] ] ] } },
{ "type": "Feature", "properties": { "classe": "Zones potentiellement sujettes aux inondations de cave" }, "geometry": { "type": "MultiPolygon", "coordinates": [ [ [ [ 2.1370922138447, 48.881793538422698 ], [ 2.140500873584231, 48.881818058466266 ], [ 2.14053797641021, 48.879569938381977 ], [ 2.140575076033147, 48.877321813697748 ], [ 2.147391816646742, 48.877370558632613 ], [ 2.147465417923578, 48.872874291469614 ], [ 2.144057340203014, 48.872849969522591 ], [ 2.14409142224416, 48.870775935648581 ], [ 2.14342822, 48.87056469 ], [ 2.14163192, 48.87028201 ], [ 2.13731483, 48.87024828 ], [ 2.137283480760565, 48.870248035393622 ], [ 2.137278431428923, 48.870552897079151 ], [ 2.140686355687853, 48.870577412081317 ], [ 2.140612172453457, 48.875073684417167 ], [ 2.137203954040371, 48.875049167398579 ], [ 2.137129463792191, 48.879545419346776 ], [ 2.13199853329139, 48.879508327113285 ], [ 2.13414757, 48.88363214000001 ], [ 2.13402703, 48.883664549999985 ], [ 2.1349404, 48.885406 ], [ 2.13633691, 48.88515617 ], [ 2.137039120571029, 48.884997494876806 ], [ 2.1370922138447, 48.881793538422698 ] ] ], [ [ [ 2.152557698164131, 48.872910451978164 ], [ 2.15215541, 48.87245972 ], [ 2.15039136, 48.87086164 ], [ 2.14891072, 48.87186650000001 ], [ 2.14816177, 48.87147805 ], [ 2.147490552130718, 48.871338672622528 ], [ 2.147465417923578, 48.872874291469614 ], [ 2.152557698164131, 48.872910451978164 ] ] ], [ [ [ 2.11660218743115, 48.883892488507733 ], [ 2.116564048178257, 48.88614059223827 ], [ 2.119614491081052, 48.886163061159777 ], [ 2.11966773, 48.88599078 ], [ 2.12009592, 48.88494348 ], [ 2.121212988316919, 48.883926420712761 ], [ 2.11660218743115, 48.883892488507733 ] ] ], [ [ [ 2.117876899344307, 48.890647027570949 ], [ 2.11818742, 48.89078061999998 ], [ 2.118227911791127, 48.890649612929138 ], [ 2.117876899344307, 48.890647027570949 ] ] ], [ [ [ 2.145264557843806, 48.870610192748281 ], [ 2.14501872, 48.870513099999989 ], [ 2.144893015985338, 48.870607538978852 ], [ 2.145264557843806, 48.870610192748281 ] ] ] ] } },
{ "type": "Feature", "properties": { "classe": "Zones potentiellement sujettes aux inondations de cave" }, "geometry": { "type": "Polygon", "coordinates": [ [ [ 2.143909536527221, 48.881842481462286 ], [ 2.147318202660966, 48.881866807410596 ], [ 2.147355011242677, 48.879618685321525 ], [ 2.14053797641021, 48.879569938381977 ], [ 2.140500873584231, 48.881818058466266 ], [ 2.1370922138447, 48.881793538422698 ], [ 2.137039120571029, 48.884997494876806 ], [ 2.13991227, 48.884348210000013 ], [ 2.14052137, 48.88429412 ], [ 2.14198086, 48.88394215 ], [ 2.143880435220628, 48.883612657278299 ], [ 2.143909536527221, 48.881842481462286 ] ] ] } },
{ "type": "Feature", "properties": { "classe": "Zones potentiellement sujettes aux débordements de nappe" }, "geometry": { "type": "Polygon", "coordinates": [ [ [ 2.118227911791127, 48.890649612929138 ], [ 2.119614491081052, 48.886163061159777 ], [ 2.116564048178257, 48.88614059223827 ], [ 2.11660218743115, 48.883892488507733 ], [ 2.121212988316919, 48.883926420712761 ], [ 2.13006078, 48.87586895 ], [ 2.13038839, 48.87641814 ], [ 2.13199853329139, 48.879508327113285 ], [ 2.137129463792191, 48.879545419346776 ], [ 2.137203954040371, 48.875049167398579 ], [ 2.140612172453457, 48.875073684417167 ], [ 2.140686355687853, 48.870577412081317 ], [ 2.137278431428923, 48.870552897079151 ], [ 2.137241194341892, 48.872801034533467 ], [ 2.133833126226722, 48.872776421491636 ], [ 2.133870510384067, 48.870528285049495 ], [ 2.13232623093313, 48.870517100299296 ], [ 2.13067712, 48.87096471 ], [ 2.12857484, 48.87186138 ], [ 2.12488576, 48.8740406 ], [ 2.12438569, 48.87442817 ], [ 2.12087652, 48.87731727 ], [ 2.11978197, 48.878103359999983 ], [ 2.11872965, 48.878889760000014 ], [ 2.11601445, 48.88132139 ], [ 2.11365748, 48.884403140000011 ], [ 2.11120525, 48.88689776 ], [ 2.11062553, 48.88730356 ], [ 2.11015963, 48.88751324 ], [ 2.11483772, 48.88933943 ], [ 2.117876899344307, 48.890647027570949 ], [ 2.118227911791127, 48.890649612929138 ] ] ] } },
{ "type": "Feature", "properties": { "classe": "Zones potentiellement sujettes aux débordements de nappe" }, "geometry": { "type": "Polygon", "coordinates": [ [ [ 2.154208569969276, 48.877418915408107 ], [ 2.154244305543052, 48.875218351488208 ], [ 2.154210119338846, 48.875170535134004 ], [ 2.150836846855212, 48.875146653258867 ], [ 2.15080019172574, 48.877394785540339 ], [ 2.147391816646742, 48.877370558632613 ], [ 2.140575076033147, 48.877321813697748 ], [ 2.14053797641021, 48.879569938381977 ], [ 2.147355011242677, 48.879618685321525 ], [ 2.147318202660966, 48.881866807410596 ], [ 2.143909536527221, 48.881842481462286 ], [ 2.143880435220628, 48.883612657278299 ], [ 2.14501825, 48.88341528 ], [ 2.15153229, 48.881921030000022 ], [ 2.157563414106443, 48.880752703661827 ], [ 2.157577530227201, 48.879880065226295 ], [ 2.155825833612689, 48.87743033099207 ], [ 2.154208569969276, 48.877418915408107 ] ] ] } },
{ "type": "Feature", "properties": { "classe": "Zones potentiellement sujettes aux inondations de cave" }, "geometry": { "type": "Polygon", "coordinates": [ [ [ 2.157563414106443, 48.880752703661827 ], [ 2.15831848, 48.88060641 ], [ 2.1576802, 48.880023640000012 ], [ 2.157577530227201, 48.879880065226295 ], [ 2.157563414106443, 48.880752703661827 ] ] ] } }
]
}
