{
"type": "FeatureCollection",
"name": "permaculture_candidats",
"crs": { "type": "name", "properties": { "name": "urn:ogc:def:crs:OGC:1.3:CRS84" } },
"features": [
{ "type": "Feature", "properties": { "id": "78190000AN0132", "section": "AN", "numero_parcelle": 132, "prefixe": null, "contenance_m2": 88147, "surface_cultivable_m2": 88147, "natures": "Terre", "adresse": "9001 CHE DE RONDE", "quartier": "Plaine des Courlis", "taux_pauvrete_quartier": 9, "secteur_plu": "UVa", "dans_ppri": false, "maille_prioritaire_sante": false, "score": 3, "rang": 1 }, "geometry": { "type": "Polygon", "coordinates": [ [ [ 2.1234436, 48.8761111 ], [ 2.1234115, 48.8761393 ], [ 2.1233681, 48.8761784 ], [ 2.1232595, 48.876274799999983 ], [ 2.1232025, 48.876324200000013 ], [ 2.1231302, 48.8763845 ], [ 2.1230429, 48.8764515 ], [ 2.1228957, 48.8765665 ], [ 2.1228461, 48.8766054 ], [ 2.1227563, 48.876683400000012 ], [ 2.1226027, 48.8768147 ], [ 2.1224753, 48.8769225 ], [ 2.1223129, 48.8770637 ], [ 2.1221527, 48.877205200000013 ], [ 2.1220114, 48.8773322 ], [ 2.1219363, 48.8773943 ], [ 2.1217685, 48.877521100000017 ], [ 2.1216534, 48.877609 ], [ 2.1215978, 48.87765060000001 ], [ 2.1214804, 48.877728 ], [ 2.1213184, 48.8778359 ], [ 2.1211411, 48.8779531 ], [ 2.1210366, 48.878033700000017 ], [ 2.1210154, 48.878051 ], [ 2.1209349, 48.87811580000001 ], [ 2.1209153, 48.8781305 ], [ 2.1211142, 48.8782128 ], [ 2.1211688, 48.8782356 ], [ 2.1213165, 48.8782966 ], [ 2.1214653, 48.8783584 ], [ 2.1215394, 48.87839 ], [ 2.1217731, 48.8784857 ], [ 2.1220086, 48.8785824 ], [ 2.122241, 48.8786783 ], [ 2.1223069, 48.8787053 ], [ 2.1224407, 48.8787608 ], [ 2.122627, 48.8788378 ], [ 2.1229707, 48.8789805 ], [ 2.1231443, 48.8790523 ], [ 2.1232568, 48.879099 ], [ 2.1232848, 48.8791106 ], [ 2.1235539, 48.8792213 ], [ 2.1238151, 48.879329 ], [ 2.1241301, 48.8794594 ], [ 2.1241825, 48.879481 ], [ 2.1244009, 48.879571 ], [ 2.1244525, 48.8795921 ], [ 2.1245805, 48.8796446 ], [ 2.1248079, 48.8797385 ], [ 2.1250027, 48.879818900000011 ], [ 2.1250473, 48.8798372 ], [ 2.1252209, 48.8799088 ], [ 2.1253948, 48.8799802 ], [ 2.1254384, 48.879998 ], [ 2.1254527, 48.8799837 ], [ 2.1255679, 48.8798808 ], [ 2.1256646, 48.8797942 ], [ 2.1257773, 48.8796927 ], [ 2.125926, 48.8795597 ], [ 2.1260398, 48.879457300000013 ], [ 2.126192, 48.8793206 ], [ 2.1262383, 48.8792793 ], [ 2.1262266, 48.8792689 ], [ 2.1263499, 48.8791586 ], [ 2.1264358, 48.8790813 ], [ 2.1264909, 48.8790309 ], [ 2.1265014, 48.879023499999988 ], [ 2.1264776, 48.8790109 ], [ 2.1264318, 48.878986599999983 ], [ 2.1264189, 48.8789797 ], [ 2.1263798, 48.87894150000001 ], [ 2.1263232, 48.878885800000027 ], [ 2.126303, 48.8788658 ], [ 2.1262497, 48.8788131 ], [ 2.1262317, 48.87879550000001 ], [ 2.1262019, 48.8787663 ], [ 2.1261339, 48.878699799999985 ], [ 2.1260199, 48.878588500000014 ], [ 2.1261592, 48.8785253 ], [ 2.12617, 48.878524 ], [ 2.1261775, 48.8785024 ], [ 2.1262178, 48.878408100000016 ], [ 2.1262369, 48.8783643 ], [ 2.1262658, 48.8782984 ], [ 2.1262427, 48.87827930000001 ], [ 2.1262363, 48.8782695 ], [ 2.1262045, 48.8782386 ], [ 2.125963, 48.8780057 ], [ 2.1258382, 48.8778834 ], [ 2.1255933, 48.8776497 ], [ 2.1254072, 48.8774691 ], [ 2.125187, 48.8772574 ], [ 2.1250819, 48.877155300000013 ], [ 2.1250357, 48.8771105 ], [ 2.1249555, 48.8770327 ], [ 2.1248186, 48.876901 ], [ 2.124672, 48.8767599 ], [ 2.1244963, 48.8765909 ], [ 2.1242732, 48.8766918 ], [ 2.1242721, 48.8766923 ], [ 2.1241183, 48.8767616 ], [ 2.1234918, 48.876157699999986 ], [ 2.1234443, 48.8761117 ], [ 2.1234436, 48.8761111 ] ] ] } },
{ "type": "Feature", "properties": { "id": "78190000AP0080", "section": "AP", "numero_parcelle": 80, "prefixe": null, "contenance_m2": 6468, "surface_cultivable_m2": 6468, "natures": "Terre", "adresse": "LES TERRES DU VESINET", "quartier": "Plaine des Courlis", "taux_pauvrete_quartier": 9, "secteur_plu": "UE", "dans_ppri": false, "maille_prioritaire_sante": false, "score": 3, "rang": 2 }, "geometry": { "type": "Polygon", "coordinates": [ [ [ 2.1167011, 48.885851099999982 ], [ 2.117105, 48.886017399999986 ], [ 2.1171385, 48.8860312 ], [ 2.1173315, 48.8861114 ], [ 2.1174614, 48.8861646 ], [ 2.1174767, 48.886171 ], [ 2.1176993, 48.8862641 ], [ 2.1179549, 48.8863688 ], [ 2.1180074, 48.886390499999983 ], [ 2.1180187, 48.8863781 ], [ 2.118098, 48.8862937 ], [ 2.1181503, 48.8862389 ], [ 2.1183509, 48.8863214 ], [ 2.1184458, 48.8863601 ], [ 2.1187283, 48.886478199999978 ], [ 2.1189217, 48.886558 ], [ 2.1191511, 48.8866537 ], [ 2.1192245, 48.8866838 ], [ 2.1193884, 48.8867522 ], [ 2.1194425, 48.886568799999985 ], [ 2.1194317, 48.886563600000017 ], [ 2.1189199, 48.8863492 ], [ 2.118612, 48.8862206 ], [ 2.1183697, 48.8861195 ], [ 2.1181588, 48.8860301 ], [ 2.1174828, 48.8857481 ], [ 2.1171192, 48.885596 ], [ 2.1169918, 48.8855432 ], [ 2.1168702, 48.8856725 ], [ 2.1167854, 48.88576170000001 ], [ 2.1167185, 48.8858324 ], [ 2.1167117, 48.8858396 ], [ 2.1167011, 48.885851099999982 ] ] ] } },
{ "type": "Feature", "properties": { "id": "78190000AL0964", "section": "AL", "numero_parcelle": 964, "prefixe": null, "contenance_m2": 2935, "surface_cultivable_m2": 2935, "natures": "Terrains d'agrément", "adresse": "RUE DE LA PRAIRIE", "quartier": "Plaine des Courlis", "taux_pauvrete_quartier": 9, "secteur_plu": "Nd", "dans_ppri": false, "maille_prioritaire_sante": false, "score": 3, "rang": 3 }, "geometry": { "type": "Polygon", "coordinates": [ [ [ 2.133226, 48.8756438 ], [ 2.133251, 48.8756395 ], [ 2.13332, 48.875623 ], [ 2.1332628, 48.875506799999989 ], [ 2.1332204, 48.8754229 ], [ 2.133144, 48.875269 ], [ 2.1330849, 48.8751512 ], [ 2.1329696, 48.874921 ], [ 2.1329578, 48.8748984 ], [ 2.1329433, 48.8748696 ], [ 2.1328554, 48.874697 ], [ 2.1328113, 48.8746063 ], [ 2.1327654, 48.8745975 ], [ 2.1325731, 48.87464210000001 ], [ 2.1325583, 48.8746651 ], [ 2.1325551, 48.8746846 ], [ 2.1325583, 48.8747012 ], [ 2.132575, 48.8747413 ], [ 2.1326596, 48.8749347 ], [ 2.132754, 48.875149700000016 ], [ 2.1328135, 48.87528720000001 ], [ 2.1328952, 48.8754744 ], [ 2.1329461, 48.875591799999988 ], [ 2.1329826, 48.8756383 ], [ 2.1330783, 48.8756653 ], [ 2.1330904, 48.8756675 ], [ 2.1330995, 48.875669199999983 ], [ 2.1331143, 48.8756491 ], [ 2.1332154, 48.8756249 ], [ 2.133226, 48.8756438 ] ] ] } },
{ "type": "Feature", "properties": { "id": "78190000AH0170", "section": "AH", "numero_parcelle": 170, "prefixe": null, "contenance_m2": 2998, "surface_cultivable_m2": 2998, "natures": "Jardins", "adresse": "PL JEAN CHANORIER", "quartier": "Vieux Croissy", "taux_pauvrete_quartier": 3, "secteur_plu": "Nd", "dans_ppri": false, "maille_prioritaire_sante": false, "score": 2, "rang": 4 }, "geometry": { "type": "Polygon", "coordinates": [ [ [ 2.1524556, 48.877705400000011 ], [ 2.1525403, 48.87779530000001 ], [ 2.1525987, 48.87785550000001 ], [ 2.1526001, 48.8778569 ], [ 2.1527207, 48.8779833 ], [ 2.152753, 48.8779722 ], [ 2.1528772, 48.877949 ], [ 2.1529918, 48.8779282 ], [ 2.1530735, 48.8779188 ], [ 2.1531439, 48.8779095 ], [ 2.1531835, 48.8779032 ], [ 2.1531438, 48.8778223 ], [ 2.1531781, 48.877816 ], [ 2.1532174, 48.8778966 ], [ 2.1532907, 48.877883 ], [ 2.1536317, 48.8778175 ], [ 2.1535935, 48.877769699999988 ], [ 2.1534651, 48.8776163 ], [ 2.1533609, 48.8774909 ], [ 2.1532916, 48.8774081 ], [ 2.1531862, 48.8774458 ], [ 2.1530105, 48.8775079 ], [ 2.1528322, 48.877571 ], [ 2.1525604, 48.877668200000016 ], [ 2.1524556, 48.877705400000011 ] ] ] } },
{ "type": "Feature", "properties": { "id": "78190000AI0197", "section": "AI", "numero_parcelle": 197, "prefixe": null, "contenance_m2": 624, "surface_cultivable_m2": 624, "natures": "Jardins", "adresse": "LES DROCOURTES", "quartier": "Vieux Croissy", "taux_pauvrete_quartier": 3, "secteur_plu": "UE", "dans_ppri": false, "maille_prioritaire_sante": false, "score": 1, "rang": 5 }, "geometry": { "type": "Polygon", "coordinates": [ [ [ 2.1450663, 48.875314699999983 ], [ 2.1450597, 48.8753172 ], [ 2.1449964, 48.8753421 ], [ 2.1449653, 48.8753542 ], [ 2.1448782, 48.875388100000016 ], [ 2.1449959, 48.8755085 ], [ 2.1450329, 48.8755471 ], [ 2.145091, 48.875609200000014 ], [ 2.1451272, 48.875646699999983 ], [ 2.1451645, 48.8756843 ], [ 2.1453422, 48.875609 ], [ 2.1453464, 48.875607300000013 ], [ 2.1450663, 48.875314699999983 ] ] ] } }
]
}
