{
"type": "FeatureCollection",
"name": "ppri",
"crs": { "type": "name", "properties": { "name": "urn:ogc:def:crs:OGC:1.3:CRS84" } },
"features": [
{ "type": "Feature", "properties": { }, "geometry": { "type": "MultiPolygon", "coordinates": [ [ [ [ 2.14642328, 48.87107514 ], [ 2.14660509, 48.87115853 ], [ 2.14666626, 48.87118896 ], [ 2.14687349, 48.87130159 ], [ 2.14692787, 48.871326379999978 ], [ 2.14707395, 48.871406339999986 ], [ 2.14716059, 48.87145141 ], [ 2.14729138, 48.87152461 ], [ 2.14732533, 48.871546 ], [ 2.14735254, 48.87155503 ], [ 2.14744763, 48.8716147 ], [ 2.14748327, 48.87164171 ], [ 2.14752744, 48.87166649 ], [ 2.1476684, 48.87175093 ], [ 2.14772953, 48.87178696 ], [ 2.1478807, 48.87187705 ], [ 2.14791807, 48.8718962 ], [ 2.14802336, 48.871960380000019 ], [ 2.14809297, 48.8720099 ], [ 2.14820674, 48.87208083 ], [ 2.1482492, 48.8721056 ], [ 2.1483273, 48.87215963 ], [ 2.14837658, 48.87217992 ], [ 2.14843602, 48.87221708 ], [ 2.14848867, 48.872253090000015 ], [ 2.1485192, 48.87228009 ], [ 2.14854119, 48.87231606 ], [ 2.14854623, 48.87233404 ], [ 2.14858865, 48.87237229 ], [ 2.14864129, 48.87240269 ], [ 2.14871955, 48.872411810000017 ], [ 2.14879443, 48.87242204 ], [ 2.148915, 48.87249747 ], [ 2.14895915, 48.87252448 ], [ 2.14900331, 48.87255151 ], [ 2.1490967, 48.87261006 ], [ 2.14913578, 48.872629200000013 ], [ 2.14926654, 48.87271139 ], [ 2.14930388, 48.87274065 ], [ 2.14945672, 48.87283746 ], [ 2.14950767, 48.87287011 ], [ 2.14955354, 48.87289377 ], [ 2.14964863, 48.87295456 ], [ 2.14966219, 48.87296918 ], [ 2.14970977, 48.8729906 ], [ 2.14984566, 48.87306829 ], [ 2.14989489, 48.8731043 ], [ 2.15001546, 48.87318198 ], [ 2.1500613, 48.873212370000012 ], [ 2.15011054, 48.87324614 ], [ 2.15019883, 48.873305800000011 ], [ 2.15023621, 48.87332607 ], [ 2.15146352, 48.87424322 ], [ 2.15229674, 48.87494412 ], [ 2.15309445, 48.87558769 ], [ 2.15362034, 48.876081490000011 ], [ 2.1538527, 48.87631766 ], [ 2.15431544, 48.87685963 ], [ 2.15453066, 48.87712834 ], [ 2.15489317, 48.87762186 ], [ 2.15512361, 48.8779153 ], [ 2.15533216, 48.87814695 ], [ 2.15549308, 48.87837065 ], [ 2.15566934, 48.87858765 ], [ 2.15591203, 48.878796899999976 ], [ 2.15622025, 48.8792398 ], [ 2.15630319, 48.87937242 ], [ 2.15651495, 48.87966359 ], [ 2.15653865, 48.8797018 ], [ 2.15661342, 48.87973785 ], [ 2.15666422, 48.87981092 ], [ 2.15680965, 48.88008626 ], [ 2.15721398, 48.88079543 ], [ 2.157228308606249, 48.880817628399654 ], [ 2.157639832384731, 48.880737897911182 ], [ 2.15762624, 48.88072533 ], [ 2.15760249, 48.88070172 ], [ 2.15752286, 48.88059267 ], [ 2.15749414, 48.880529739999986 ], [ 2.15730279, 48.88024535 ], [ 2.15720453, 48.88011158 ], [ 2.15702316, 48.87989346 ], [ 2.15695709, 48.879800149999987 ], [ 2.15679983, 48.87950796 ], [ 2.15651533, 48.87908867 ], [ 2.15636123, 48.87886385 ], [ 2.15597953, 48.878490450000015 ], [ 2.15593208, 48.87843199 ], [ 2.15562733, 48.87796775 ], [ 2.15553248, 48.87783623 ], [ 2.15536136, 48.87761138 ], [ 2.15517998, 48.87740111 ], [ 2.15510038, 48.87728757 ], [ 2.15497694, 48.87705606 ], [ 2.15489396, 48.87694028 ], [ 2.15480068, 48.8768402 ], [ 2.15422627, 48.87611053 ], [ 2.15405862, 48.87586884 ], [ 2.15406546, 48.87586212 ], [ 2.15408418, 48.87586215 ], [ 2.15405376, 48.87580259 ], [ 2.15403853, 48.8757801 ], [ 2.15400299, 48.875722780000011 ], [ 2.15399792, 48.875712659999984 ], [ 2.15396747, 48.87566097 ], [ 2.15396407, 48.875658709999989 ], [ 2.15393858, 48.87564632 ], [ 2.15391482, 48.87562607 ], [ 2.15391144, 48.8756227 ], [ 2.15389785, 48.875610319999986 ], [ 2.15389616, 48.87560807 ], [ 2.15386571, 48.875558620000014 ], [ 2.1538201, 48.87545973 ], [ 2.15378984, 48.87535862 ], [ 2.15375102, 48.87526536 ], [ 2.15367806, 48.875201250000011 ], [ 2.15359654, 48.87515058 ], [ 2.1535186, 48.87505052 ], [ 2.15323423, 48.87461214 ], [ 2.15325812, 48.874596449999984 ], [ 2.15324116, 48.87457734 ], [ 2.15323608, 48.87457284 ], [ 2.15314113, 48.87447276 ], [ 2.15300572, 48.87426255 ], [ 2.15270412, 48.87388029 ], [ 2.15253136, 48.873646450000017 ], [ 2.15234497, 48.873414830000016 ], [ 2.15223982, 48.87330799 ], [ 2.15206874, 48.87308315 ], [ 2.15188886, 48.8729335 ], [ 2.15180411, 48.87283567 ], [ 2.1517398, 48.87273789 ], [ 2.15165163, 48.87264118 ], [ 2.15156172, 48.87255793 ], [ 2.15148888, 48.87246237 ], [ 2.1514433, 48.872365729999984 ], [ 2.15136357, 48.87228925 ], [ 2.15128039, 48.87222847 ], [ 2.15124325, 48.872145320000016 ], [ 2.15117542, 48.87207447 ], [ 2.15099881, 48.871963020000017 ], [ 2.15079654, 48.87188633 ], [ 2.15071164, 48.87182893 ], [ 2.15067276, 48.87175588 ], [ 2.15060844, 48.87166145 ], [ 2.1505321, 48.87159171 ], [ 2.15020617, 48.87135425000001 ], [ 2.15013831, 48.87129237000002 ], [ 2.15007565, 48.87120806 ], [ 2.14999759, 48.871145049999988 ], [ 2.149989531577304, 48.871134353015485 ], [ 2.14891072, 48.87186650000001 ], [ 2.14816177, 48.87147805 ], [ 2.14668618, 48.87117164 ], [ 2.146393386708207, 48.871056008300336 ], [ 2.14642328, 48.87107514 ] ] ], [ [ [ 2.13776452, 48.8718722 ], [ 2.13781503, 48.872010400000015 ], [ 2.13782182, 48.87201603 ], [ 2.13782691, 48.87201829 ], [ 2.13783541, 48.87202279 ], [ 2.13783706, 48.87203514 ], [ 2.13783704, 48.87203627 ], [ 2.13782855, 48.87203737 ], [ 2.13774674, 48.87205969 ], [ 2.13773822, 48.87206192 ], [ 2.13763406, 48.87214259 ], [ 2.13760662, 48.87219531 ], [ 2.13759632, 48.87221551 ], [ 2.13757911, 48.872261509999987 ], [ 2.13755862, 48.87227833 ], [ 2.13754161, 48.87227605 ], [ 2.137528, 48.87227491 ], [ 2.13745822, 48.87226804 ], [ 2.13739017, 48.872261190000025 ], [ 2.13737996, 48.87226118 ], [ 2.13737659, 48.87225218 ], [ 2.13735139, 48.8721668 ], [ 2.13738218, 48.872130919999982 ], [ 2.13736354, 48.87211067 ], [ 2.13736701, 48.872092719999984 ], [ 2.13740979, 48.87203889 ], [ 2.1374115, 48.872037770000013 ], [ 2.13741496, 48.87202319 ], [ 2.137366, 48.87192203 ], [ 2.13736262, 48.871914170000011 ], [ 2.13733746, 48.87182317 ], [ 2.13732903, 48.87180294 ], [ 2.13731558, 48.87176138 ], [ 2.13730717, 48.87173666 ], [ 2.13730043, 48.871719810000016 ], [ 2.13727162, 48.87168606 ], [ 2.13724962, 48.87165795 ], [ 2.13722772, 48.87159953 ], [ 2.13722099, 48.87157594 ], [ 2.13720598, 48.87149956 ], [ 2.13719764, 48.87145799000001 ], [ 2.13718762, 48.87141306 ], [ 2.1371777, 48.87133781 ], [ 2.13716776, 48.8712693 ], [ 2.13716113, 48.871225489999986 ], [ 2.1371545, 48.871180569999986 ], [ 2.13714619, 48.87113227 ], [ 2.13712949, 48.87105139 ], [ 2.13712617, 48.87102893 ], [ 2.13711628, 48.87094919 ], [ 2.13711464, 48.87093234000001 ], [ 2.13711301, 48.87091661 ], [ 2.13711822, 48.8708908 ], [ 2.13712173, 48.870864980000015 ], [ 2.13717291, 48.87083588 ], [ 2.13717973, 48.87083252 ], [ 2.13718144, 48.870831399999986 ], [ 2.13723081, 48.87083036 ], [ 2.13728187, 48.870829329999985 ], [ 2.13728552, 48.8707687 ], [ 2.13728744, 48.87071255999998 ], [ 2.13728944, 48.87063958 ], [ 2.13714636, 48.870665150000015 ], [ 2.13671739, 48.87067339 ], [ 2.1363412, 48.8706716 ], [ 2.13595818, 48.870681030000014 ], [ 2.13574708, 48.87069189 ], [ 2.13559212, 48.870706210000016 ], [ 2.13562282, 48.87069054 ], [ 2.13543555, 48.8706992 ], [ 2.13522951, 48.8707168 ], [ 2.13530434, 48.87073378 ], [ 2.13530263, 48.87073377 ], [ 2.13514428, 48.87074809 ], [ 2.13476111, 48.87079345 ], [ 2.13434394, 48.8708264 ], [ 2.13329663, 48.870941320000014 ], [ 2.1329117, 48.87100126 ], [ 2.13234956, 48.87110469 ], [ 2.13195092, 48.871184820000018 ], [ 2.13175837, 48.87123051 ], [ 2.13158292, 48.87126163 ], [ 2.13140573, 48.87130174 ], [ 2.13110578, 48.87138879 ], [ 2.13083124, 48.87150844 ], [ 2.13055334, 48.87161573 ], [ 2.13034862, 48.87172653 ], [ 2.13021053, 48.87177456 ], [ 2.12957796, 48.87203055 ], [ 2.12934601, 48.87213568 ], [ 2.1291038, 48.87225539 ], [ 2.12889575, 48.87234484 ], [ 2.12888199, 48.87238075 ], [ 2.128812, 48.87242666 ], [ 2.1285084, 48.87257096 ], [ 2.12832572, 48.87269638 ], [ 2.12821155, 48.87273099 ], [ 2.12809204, 48.87281274 ], [ 2.12795554, 48.87289109 ], [ 2.12769595, 48.87309161 ], [ 2.12717864, 48.87345223 ], [ 2.12692421, 48.87363929 ], [ 2.12634382, 48.87402561 ], [ 2.12614408, 48.87415662 ], [ 2.12613385, 48.87416221 ], [ 2.12606727, 48.87420587 ], [ 2.12558435, 48.87448233 ], [ 2.12550417, 48.87452486 ], [ 2.12541033, 48.87457297 ], [ 2.12522429, 48.87468715 ], [ 2.12521405, 48.87469388 ], [ 2.12470718, 48.87499724 ], [ 2.12438792, 48.87521447 ], [ 2.12378684, 48.87564791 ], [ 2.12359556, 48.87579129 ], [ 2.12252266, 48.8766786 ], [ 2.12124305, 48.87772271 ], [ 2.12105529, 48.87783576 ], [ 2.12097502, 48.87789737 ], [ 2.1208845, 48.877963449999989 ], [ 2.12085716, 48.87798586 ], [ 2.12076825, 48.87807439 ], [ 2.12050529, 48.87825693 ], [ 2.12023397, 48.87840126 ], [ 2.1201176, 48.87853916 ], [ 2.11990744, 48.87871617 ], [ 2.11973838, 48.87883488 ], [ 2.11930954, 48.879181040000013 ], [ 2.11892157, 48.87952838 ], [ 2.11856758, 48.879888150000014 ], [ 2.11827503, 48.88020986 ], [ 2.11816227, 48.88029835 ], [ 2.11796431, 48.88040689 ], [ 2.11789059, 48.88052129 ], [ 2.11775374, 48.88067037 ], [ 2.11757427, 48.88082947 ], [ 2.11733335, 48.88102551 ], [ 2.1171438, 48.88115203000001 ], [ 2.11671671, 48.8814847 ], [ 2.11641712, 48.88185692 ], [ 2.11608355, 48.88220775 ], [ 2.11595344, 48.88237143 ], [ 2.11582657, 48.88256881 ], [ 2.11560008, 48.88296138 ], [ 2.11540773, 48.88333155 ], [ 2.11535836, 48.88333146 ], [ 2.11529516, 48.88337737 ], [ 2.11522309, 48.88350075000001 ], [ 2.11499682, 48.88384392 ], [ 2.11479979, 48.88411864 ], [ 2.11479127, 48.88412199 ], [ 2.11477426, 48.88411634 ], [ 2.11475894, 48.88411856 ], [ 2.11474865, 48.88413313 ], [ 2.11472639, 48.88416004 ], [ 2.11473319, 48.88416343 ], [ 2.11473489, 48.884164549999987 ], [ 2.11473146, 48.88416904 ], [ 2.11473486, 48.88417017 ], [ 2.11465782, 48.88426546 ], [ 2.11446799, 48.88445149 ], [ 2.11410501, 48.88490218 ], [ 2.11400081, 48.88497945 ], [ 2.11381954, 48.88515314 ], [ 2.11366931, 48.885242690000013 ], [ 2.11353043, 48.88545688 ], [ 2.11306345, 48.88593432 ], [ 2.11267331, 48.88635912 ], [ 2.11251926, 48.88653848 ], [ 2.11240109, 48.88668983 ], [ 2.11211213, 48.88695651 ], [ 2.1119376, 48.88714144999998 ], [ 2.111782, 48.88728599 ], [ 2.11171018, 48.88735321 ], [ 2.11168112, 48.88737899 ], [ 2.11160415, 48.88745744 ], [ 2.1113936, 48.88770294 ], [ 2.111190870643138, 48.887915833264344 ], [ 2.11483772, 48.88933943 ], [ 2.115646605459559, 48.889687464581321 ], [ 2.11573525, 48.889692180000011 ], [ 2.11574037, 48.88969219 ], [ 2.11577109, 48.889676540000011 ], [ 2.11592418, 48.889712759999988 ], [ 2.11604163, 48.8897231 ], [ 2.11605696, 48.88972425 ], [ 2.11612844, 48.889731119999986 ], [ 2.11615229, 48.889728919999989 ], [ 2.11617256, 48.88976490000001 ], [ 2.11616607, 48.88969078 ], [ 2.11616609, 48.88968628 ], [ 2.11616611, 48.88968517 ], [ 2.11617295, 48.889676189999989 ], [ 2.11683542, 48.88966062 ], [ 2.11685074, 48.88965953 ], [ 2.11715564, 48.88963767 ], [ 2.11718648, 48.8895973 ], [ 2.11721715, 48.88959287 ], [ 2.1172342, 48.88958953 ], [ 2.11729363, 48.88962445 ], [ 2.11756832, 48.889503709999985 ], [ 2.1177833, 48.88940868 ], [ 2.1178379, 48.889381830000012 ], [ 2.1179932, 48.88930465 ], [ 2.11840012, 48.88892702 ], [ 2.11841562, 48.88888887 ], [ 2.11764736, 48.88857074 ], [ 2.11775852, 48.88846316 ], [ 2.11847075, 48.88874525 ], [ 2.11850177, 48.88865997 ], [ 2.11851556, 48.88862294 ], [ 2.11861111, 48.888575960000011 ], [ 2.11862139, 48.88856363 ], [ 2.11863167, 48.88855017 ], [ 2.1186625, 48.888507559999979 ], [ 2.11877681, 48.88845725 ], [ 2.11880428, 48.88840453000001 ], [ 2.11879412, 48.88839216 ], [ 2.11879411, 48.88839104 ], [ 2.11879243, 48.88838879 ], [ 2.11878909, 48.8883753 ], [ 2.11878745, 48.888360700000014 ], [ 2.11878747, 48.888353970000011 ], [ 2.11876711, 48.88834045 ], [ 2.11875182, 48.8883292 ], [ 2.11875528, 48.8883191 ], [ 2.11876043, 48.88830788 ], [ 2.11876218, 48.88829889 ], [ 2.11876562, 48.8882888 ], [ 2.1186107, 48.8878955 ], [ 2.11859888, 48.887875260000015 ], [ 2.11859725, 48.88785505 ], [ 2.11859728, 48.887849430000017 ], [ 2.11854104, 48.887861670000028 ], [ 2.11841354, 48.88781203 ], [ 2.11838124, 48.88779961 ], [ 2.11824695, 48.88774883 ], [ 2.11821637, 48.887736409999988 ], [ 2.11816363, 48.88772172 ], [ 2.11811753, 48.88775195 ], [ 2.11805435, 48.887793370000011 ], [ 2.11777895, 48.88807806 ], [ 2.11766839, 48.88805314 ], [ 2.11752889, 48.88802256 ], [ 2.11751193, 48.88800568 ], [ 2.11751024, 48.888003429999983 ], [ 2.11749668, 48.887989930000018 ], [ 2.11744578, 48.88794829 ], [ 2.11741695, 48.88792352 ], [ 2.11737797, 48.8878819 ], [ 2.11736271, 48.88786615 ], [ 2.11731013, 48.887821139999986 ], [ 2.11726776, 48.887773899999985 ], [ 2.11726099, 48.88776715 ], [ 2.11722879, 48.88773003 ], [ 2.11720844, 48.8877109 ], [ 2.11717464, 48.88765357 ], [ 2.11714599, 48.88758838 ], [ 2.11713923, 48.88757489 ], [ 2.117119, 48.887531060000015 ], [ 2.11711731, 48.88752882 ], [ 2.1171072, 48.88750409 ], [ 2.11713807, 48.88745363 ], [ 2.1172444, 48.887283149999988 ], [ 2.11728916, 48.88717207 ], [ 2.11728587, 48.88714511 ], [ 2.11735995, 48.88694876 ], [ 2.11738751, 48.88687695 ], [ 2.11752585, 48.88678401 ], [ 2.11751065, 48.88675479 ], [ 2.11746508, 48.8866615 ], [ 2.1174996, 48.886559389999988 ], [ 2.11751511, 48.88651562 ], [ 2.1177845, 48.886435300000016 ], [ 2.11779473, 48.88643307 ], [ 2.11780837, 48.88642635 ], [ 2.11780839, 48.88642298 ], [ 2.11780334, 48.8864095 ], [ 2.11775792, 48.886282529999988 ], [ 2.11782633, 48.88621529000001 ], [ 2.11791555, 48.8860605 ], [ 2.11805718, 48.885990030000016 ], [ 2.11807274, 48.88593953 ], [ 2.11805441, 48.885846290000011 ], [ 2.11816911, 48.88570728 ], [ 2.11798238, 48.88557892 ], [ 2.11780112, 48.88536746 ], [ 2.1177687, 48.88538313 ], [ 2.11775853, 48.88537412 ], [ 2.11776205, 48.88534718 ], [ 2.11741011, 48.88523085 ], [ 2.11734902, 48.88518582 ], [ 2.11727264, 48.88513065 ], [ 2.11693882, 48.88515133 ], [ 2.11692521, 48.88515243 ], [ 2.11670721, 48.88516324 ], [ 2.11640795, 48.88507171 ], [ 2.11619881, 48.88500842 ], [ 2.11616475, 48.88500724 ], [ 2.11594973, 48.88512024 ], [ 2.11595143, 48.88511799 ], [ 2.11594972, 48.88511911 ], [ 2.11596512, 48.88510118 ], [ 2.11600278, 48.88505633 ], [ 2.11566097, 48.88496135 ], [ 2.11548751, 48.88491385 ], [ 2.11547252, 48.88484084000001 ], [ 2.11547087, 48.884830719999989 ], [ 2.11547086, 48.88482960000001 ], [ 2.11548815, 48.884770130000014 ], [ 2.11549335, 48.88475217 ], [ 2.11555178, 48.88462988 ], [ 2.11555182, 48.88461978 ], [ 2.11555187, 48.88460743 ], [ 2.11555189, 48.8846063 ], [ 2.11560729, 48.88439981 ], [ 2.1157062, 48.88436518 ], [ 2.11575735, 48.88434731 ], [ 2.11579828, 48.8843328 ], [ 2.11579998, 48.884332810000011 ], [ 2.11593429, 48.88437798 ], [ 2.11594108, 48.88438474 ], [ 2.11594617, 48.88438586 ], [ 2.11594787, 48.88438586 ], [ 2.11610598, 48.88444232 ], [ 2.1161691, 48.884411 ], [ 2.116176, 48.88439304 ], [ 2.11629205, 48.88433151000001 ], [ 2.11629379, 48.884325900000015 ], [ 2.11630257, 48.88426303 ], [ 2.11630427, 48.88426416 ], [ 2.11631613, 48.88427653 ], [ 2.11634496, 48.884303540000012 ], [ 2.11634496, 48.88430466 ], [ 2.11631415, 48.88433941000001 ], [ 2.11624571, 48.88441451 ], [ 2.11624226, 48.884425740000019 ], [ 2.11634928, 48.88447984 ], [ 2.11647669, 48.88454409 ], [ 2.11647839, 48.88454522 ], [ 2.11649877, 48.88455873 ], [ 2.1166228, 48.88461736 ], [ 2.1166296, 48.88462074 ], [ 2.11663299, 48.88462188 ], [ 2.1166381, 48.884623 ], [ 2.11670101, 48.884641090000017 ], [ 2.11678944, 48.884664839999985 ], [ 2.11692904, 48.88467073 ], [ 2.11709408, 48.88469799 ], [ 2.11717744, 48.88471163 ], [ 2.11719786, 48.88471503 ], [ 2.11721148, 48.88471731 ], [ 2.11726762, 48.88472639 ], [ 2.11731013, 48.88473883 ], [ 2.11736511, 48.884626650000016 ], [ 2.11780594, 48.884274909999988 ], [ 2.11798304, 48.88426852 ], [ 2.11830835, 48.88424444000001 ], [ 2.11835091, 48.88424339 ], [ 2.11836617, 48.88426027 ], [ 2.11887703, 48.88424216 ], [ 2.11893503, 48.884218680000011 ], [ 2.11896052, 48.88422995 ], [ 2.11896732, 48.8842311 ], [ 2.11903712, 48.88423572 ], [ 2.11922093, 48.88425179 ], [ 2.11911091, 48.88449187 ], [ 2.11940778, 48.88435096 ], [ 2.11962601, 48.884285120000015 ], [ 2.11968218, 48.88429197 ], [ 2.11969238, 48.88429310999998 ], [ 2.11970259, 48.88429538 ], [ 2.1197281, 48.88430216 ], [ 2.11990674, 48.88433282 ], [ 2.11997992, 48.88434081 ], [ 2.12002416, 48.88434539 ], [ 2.12008558, 48.88431744 ], [ 2.12017964, 48.8842233 ], [ 2.12015419, 48.88420191 ], [ 2.12018336, 48.88414807 ], [ 2.12021397, 48.88415935 ], [ 2.12023097, 48.88416613 ], [ 2.12023267, 48.88416613 ], [ 2.12024797, 48.88417177 ], [ 2.12029556, 48.88418983 ], [ 2.12029726, 48.88418983 ], [ 2.12029053, 48.884171850000023 ], [ 2.12029727, 48.884188710000011 ], [ 2.12029224, 48.884171850000023 ], [ 2.12029904, 48.884170740000023 ], [ 2.12038424, 48.884155189999987 ], [ 2.12038766, 48.884155199999988 ], [ 2.12043554, 48.88410588 ], [ 2.12043726, 48.884103629999984 ], [ 2.12044408, 48.88410028 ], [ 2.12049368, 48.88404984 ], [ 2.12049709, 48.88404648 ], [ 2.12051419, 48.88403079 ], [ 2.12056205, 48.88398822 ], [ 2.12060991, 48.88394564 ], [ 2.12061331, 48.8839434 ], [ 2.12062528, 48.88393332 ], [ 2.12072102, 48.88384479 ], [ 2.12072443, 48.88384255 ], [ 2.12073639, 48.883832460000029 ], [ 2.12079281, 48.883780920000014 ], [ 2.12079621, 48.883778679999985 ], [ 2.1208099, 48.88376524000001 ], [ 2.120868, 48.88371481 ], [ 2.12096201, 48.88363415 ], [ 2.12096542, 48.88362966 ], [ 2.1209791, 48.88361845 ], [ 2.1209808, 48.88361621 ], [ 2.12099789, 48.883600520000016 ], [ 2.12106115, 48.88354338 ], [ 2.12107482, 48.88353105 ], [ 2.12107483, 48.88352881 ], [ 2.12115688, 48.88345373 ], [ 2.12117056, 48.883441399999988 ], [ 2.12124405, 48.88337417000001 ], [ 2.12124576, 48.88337305 ], [ 2.12125437, 48.88335173 ], [ 2.12132787, 48.883286740000017 ], [ 2.12134531, 48.88319133000001 ], [ 2.12129772, 48.8831699 ], [ 2.12127394, 48.88315863 ], [ 2.12121957, 48.88313382 ], [ 2.12113801, 48.88309325 ], [ 2.12113122, 48.88308987 ], [ 2.12106836, 48.88305831 ], [ 2.12111457, 48.88300337 ], [ 2.12114538, 48.88296526 ], [ 2.12116248, 48.88294732 ], [ 2.12116419, 48.88294732 ], [ 2.12117608, 48.88295297 ], [ 2.12118118, 48.88295522 ], [ 2.12118288, 48.88295634 ], [ 2.12128992, 48.88300707 ], [ 2.12130011, 48.88301046 ], [ 2.1213528, 48.88303527 ], [ 2.12140206, 48.88305894 ], [ 2.12161841, 48.883031270000011 ], [ 2.12162353, 48.88303016 ], [ 2.12172096, 48.88294052 ], [ 2.12172779, 48.88293492 ], [ 2.12173464, 48.88292931 ], [ 2.12183377, 48.88283967 ], [ 2.12184402, 48.88283182 ], [ 2.12185428, 48.88282286 ], [ 2.12193974, 48.88274442 ], [ 2.12194829, 48.882735459999978 ], [ 2.12203206, 48.88265588 ], [ 2.1220406, 48.88264917 ], [ 2.12207993, 48.88261106 ], [ 2.12212437, 48.88257073 ], [ 2.12213292, 48.882562880000023 ], [ 2.12222181, 48.88247995 ], [ 2.12223035, 48.882473230000016 ], [ 2.12223035, 48.88247211 ], [ 2.12230386, 48.88240375 ], [ 2.1223278, 48.88238134 ], [ 2.12241838, 48.88229954 ], [ 2.12242694, 48.882291699999989 ], [ 2.12242864, 48.88229169 ], [ 2.12244392, 48.88229846 ], [ 2.12243548, 48.88228386 ], [ 2.12243547, 48.88228273 ], [ 2.1224372, 48.88228161 ], [ 2.12247479, 48.882247990000018 ], [ 2.12253291, 48.88219533 ], [ 2.12254487, 48.88218524 ], [ 2.12254488, 48.882184120000012 ], [ 2.12264059, 48.882097830000014 ], [ 2.12265085, 48.882087750000011 ], [ 2.12274657, 48.88200147 ], [ 2.12275853, 48.88198914 ], [ 2.12285594, 48.881903979999983 ], [ 2.1228628, 48.88189501 ], [ 2.12292604, 48.88183674 ], [ 2.12295168, 48.88181321 ], [ 2.12295852, 48.88180649000001 ], [ 2.12296023, 48.88180537 ], [ 2.12304739, 48.8817258 ], [ 2.12305423, 48.881719080000025 ], [ 2.12305595, 48.88171796 ], [ 2.12314141, 48.88163952 ], [ 2.12315168, 48.88162719 ], [ 2.12315338, 48.88162494 ], [ 2.12315895, 48.8815194 ], [ 2.12307567, 48.88148556 ], [ 2.12307228, 48.88148443 ], [ 2.12306207, 48.88147992 ], [ 2.12293293, 48.88142466 ], [ 2.12291763, 48.88141789 ], [ 2.12293646, 48.88139323 ], [ 2.12296214, 48.881359589999988 ], [ 2.12296385, 48.88135959 ], [ 2.12297404, 48.88136298 ], [ 2.12303187, 48.88137768 ], [ 2.12304037, 48.88137994 ], [ 2.12304207, 48.88138108 ], [ 2.12304377, 48.88138219 ], [ 2.1231543, 48.881414969999987 ], [ 2.1231866, 48.881424010000011 ], [ 2.12319171, 48.88142514 ], [ 2.12320704, 48.8814218 ], [ 2.12334336, 48.88139398 ], [ 2.12341833, 48.88137952 ], [ 2.12342004, 48.88137953 ], [ 2.12342175, 48.88137842 ], [ 2.12342175, 48.88137729 ], [ 2.12342687, 48.8813728 ], [ 2.1234713, 48.88133471 ], [ 2.12352429, 48.88128765 ], [ 2.12352942, 48.88128092 ], [ 2.12353113, 48.881279800000016 ], [ 2.12360804, 48.881209210000016 ], [ 2.1236183, 48.881199120000026 ], [ 2.12362172, 48.881198 ], [ 2.12367129, 48.88115206 ], [ 2.12369693, 48.88112853 ], [ 2.12370719, 48.88111731 ], [ 2.12371061, 48.88111508 ], [ 2.12378581, 48.88104559 ], [ 2.12386444, 48.88097613 ], [ 2.12387639, 48.88096604 ], [ 2.12387982, 48.88096155 ], [ 2.12395673, 48.880893200000017 ], [ 2.12396868, 48.880882 ], [ 2.12397211, 48.88087863 ], [ 2.12405072, 48.88080917 ], [ 2.12405756, 48.88080131 ], [ 2.12406098, 48.88079907 ], [ 2.12411396, 48.88074977 ], [ 2.1241567, 48.8807083 ], [ 2.12416525, 48.88070045 ], [ 2.12416867, 48.88069709 ], [ 2.12417551, 48.88068925 ], [ 2.12417893, 48.88068701 ], [ 2.12427466, 48.88059623 ], [ 2.1242463, 48.88045694 ], [ 2.12413755, 48.880409579999984 ], [ 2.12413586, 48.88040734 ], [ 2.12413247, 48.88040621 ], [ 2.12412906, 48.88040507 ], [ 2.12412227, 48.880402810000014 ], [ 2.12411547, 48.88039943 ], [ 2.12405938, 48.88037575 ], [ 2.1240033, 48.88035319 ], [ 2.12399311, 48.880348669999982 ], [ 2.123988, 48.88034754 ], [ 2.12398459, 48.880346409999987 ], [ 2.12394211, 48.88032837 ], [ 2.12387415, 48.880299050000012 ], [ 2.12386224, 48.88029453 ], [ 2.12385204, 48.88029114 ], [ 2.12378237, 48.88026182 ], [ 2.12373988, 48.88024378 ], [ 2.12372798, 48.88023926 ], [ 2.12371779, 48.88023587 ], [ 2.12371268, 48.88023474 ], [ 2.12370927, 48.88023473 ], [ 2.1236583, 48.88021218 ], [ 2.12362432, 48.880197519999989 ], [ 2.1234693, 48.88021744000001 ], [ 2.12339584, 48.88027682 ], [ 2.12339412, 48.88027906 ], [ 2.12338557, 48.88028802 ], [ 2.1232762, 48.88038326 ], [ 2.12326937, 48.88038887 ], [ 2.12326766, 48.88038999 ], [ 2.12315657, 48.880489719999986 ], [ 2.12315146, 48.88049195 ], [ 2.12303183, 48.88059616 ], [ 2.12301644, 48.88061072 ], [ 2.1229842, 48.88058596 ], [ 2.12290954, 48.88052855 ], [ 2.12284335, 48.88047902 ], [ 2.12285361, 48.88046893 ], [ 2.12286044, 48.88046334 ], [ 2.12285875, 48.88046333 ], [ 2.12290833, 48.88041403 ], [ 2.12289636, 48.880426350000015 ], [ 2.12290319, 48.88041963 ], [ 2.12290662, 48.880416260000011 ], [ 2.1229374, 48.88038488 ], [ 2.12294081, 48.88038152 ], [ 2.12294424, 48.880378149999977 ], [ 2.12302289, 48.8802997 ], [ 2.12302803, 48.88029185 ], [ 2.1230879, 48.88022907 ], [ 2.12313065, 48.88018313 ], [ 2.12314091, 48.88017079 ], [ 2.12314263, 48.88017079 ], [ 2.12317156, 48.88017197 ], [ 2.12320414, 48.88011925 ], [ 2.12316712, 48.880017 ], [ 2.12311287, 48.879963 ], [ 2.1230211, 48.87992578 ], [ 2.123016, 48.87992352 ], [ 2.12292592, 48.879886299999988 ], [ 2.12292422, 48.87988517 ], [ 2.12291913, 48.87988404 ], [ 2.12285624, 48.87985809 ], [ 2.12275257, 48.87981635 ], [ 2.12274918, 48.8798141 ], [ 2.12257923, 48.879745290000017 ], [ 2.12252315, 48.879721600000018 ], [ 2.1226528, 48.879661210000016 ], [ 2.12279092, 48.879608690000012 ], [ 2.12298534, 48.87953271 ], [ 2.12316778, 48.87946680000001 ], [ 2.12326147, 48.879453489999989 ], [ 2.12332801, 48.87941881 ], [ 2.12349686, 48.879349500000011 ], [ 2.12363515, 48.87925881000001 ], [ 2.12360967, 48.87924529 ], [ 2.12357228, 48.87922837 ], [ 2.1235553, 48.87922161 ], [ 2.12354509, 48.8792171 ], [ 2.12351112, 48.87920019 ], [ 2.12346186, 48.87917764 ], [ 2.12342446, 48.87916185000001 ], [ 2.12340067, 48.8791517 ], [ 2.12335989, 48.87913365 ], [ 2.1233395, 48.87912464 ], [ 2.12324094, 48.879081789999987 ], [ 2.12319675, 48.87906261 ], [ 2.12315767, 48.87904682 ], [ 2.12304892, 48.878999460000017 ], [ 2.12302343, 48.87898818 ], [ 2.12289769, 48.87893292 ], [ 2.12289599, 48.87893179000001 ], [ 2.12289258, 48.87893067 ], [ 2.12284502, 48.87890924 ], [ 2.12277198, 48.87886981 ], [ 2.1227618, 48.87886304000002 ], [ 2.1227533, 48.87885854 ], [ 2.12265646, 48.878813450000017 ], [ 2.12264288, 48.87880331 ], [ 2.1226276, 48.8787943 ], [ 2.12254605, 48.87875484 ], [ 2.12250022, 48.8787222 ], [ 2.12243908, 48.87869065000001 ], [ 2.1223729, 48.87863999 ], [ 2.12235427, 48.8786175 ], [ 2.12225751, 48.87855107 ], [ 2.12225413, 48.878548810000019 ], [ 2.12229861, 48.878494990000021 ], [ 2.12235674, 48.87843672000001 ], [ 2.12235675, 48.878435600000017 ], [ 2.12236016, 48.878434479999989 ], [ 2.12236359, 48.87843111 ], [ 2.12246788, 48.87832689 ], [ 2.12248507, 48.878289859999981 ], [ 2.12255518, 48.87821588 ], [ 2.1225059, 48.878195580000011 ], [ 2.12251453, 48.878168639999984 ], [ 2.12251965, 48.87816417 ], [ 2.12248395, 48.87815511 ], [ 2.12247884, 48.87815397 ], [ 2.1224499, 48.87815168 ], [ 2.12243293, 48.87814267000001 ], [ 2.12241934, 48.878134780000011 ], [ 2.12233604, 48.87810767 ], [ 2.12233097, 48.87809755 ], [ 2.12231761, 48.87804027 ], [ 2.12231761, 48.87803914 ], [ 2.12233676, 48.87794037 ], [ 2.12234725, 48.87787862 ], [ 2.12238661, 48.8778293 ], [ 2.12229826, 48.87778758 ], [ 2.122278, 48.877750490000011 ], [ 2.12219118, 48.877748080000011 ], [ 2.12211289, 48.877745690000012 ], [ 2.12203465, 48.87772982 ], [ 2.12177098, 48.877678799999984 ], [ 2.12166042, 48.877657249999977 ], [ 2.12163656, 48.877663939999984 ], [ 2.12165706, 48.877647130000021 ], [ 2.1216622, 48.87764265 ], [ 2.12172194, 48.87760347 ], [ 2.12184956, 48.87761831000001 ], [ 2.12186658, 48.87762058 ], [ 2.12187519, 48.87759927 ], [ 2.12188034, 48.8775858 ], [ 2.12189396, 48.8775847 ], [ 2.1220494, 48.87746597000001 ], [ 2.12206158, 48.87740423 ], [ 2.12209408, 48.87737061 ], [ 2.12211803, 48.87734258 ], [ 2.12217621, 48.877273070000022 ], [ 2.12218303, 48.87727084 ], [ 2.12218476, 48.87726523 ], [ 2.12225312, 48.877203590000015 ], [ 2.12230097, 48.8771599 ], [ 2.12234195, 48.87713303000001 ], [ 2.12237607, 48.87711513 ], [ 2.12247169, 48.87704793 ], [ 2.12247853, 48.877043439999987 ], [ 2.12247851, 48.87704794 ], [ 2.12245107, 48.87709617 ], [ 2.12257537, 48.877088550000011 ], [ 2.1226247, 48.8770965 ], [ 2.12264, 48.87710214 ], [ 2.12300135, 48.87699727 ], [ 2.12300477, 48.876995030000018 ], [ 2.1230099, 48.8769883 ], [ 2.12300991, 48.87698943 ], [ 2.12301161, 48.87698831 ], [ 2.12301837, 48.87700067 ], [ 2.12308094, 48.87709736 ], [ 2.12307739, 48.87713216 ], [ 2.12307385, 48.87716134 ], [ 2.12311246, 48.87729055 ], [ 2.12311061, 48.87732536 ], [ 2.12319722, 48.87737155 ], [ 2.12320404, 48.87737044 ], [ 2.12331951, 48.87743691 ], [ 2.12332633, 48.87743804 ], [ 2.12332802, 48.877438050000016 ], [ 2.12349344, 48.87737211 ], [ 2.12353444, 48.87733738 ], [ 2.12349735, 48.87725534 ], [ 2.12349735, 48.87725422 ], [ 2.12360494, 48.87717582 ], [ 2.12363226, 48.87715453 ], [ 2.12363396, 48.87715453 ], [ 2.12365609, 48.877157939999989 ], [ 2.12373775, 48.87716932 ], [ 2.12379071, 48.877125630000023 ], [ 2.12376547, 48.87705596 ], [ 2.12376549, 48.87705484 ], [ 2.12380478, 48.87702348 ], [ 2.12384603, 48.87692923 ], [ 2.12395329, 48.87692718 ], [ 2.12397036, 48.876914869999986 ], [ 2.12396735, 48.87682391 ], [ 2.12398785, 48.87680823 ], [ 2.12413756, 48.87678944000001 ], [ 2.12418349, 48.87683778000001 ], [ 2.12447505, 48.87673165 ], [ 2.12456192, 48.87672058 ], [ 2.12461961, 48.87676785 ], [ 2.12463317, 48.87677686 ], [ 2.12464675, 48.87678924 ], [ 2.12466541, 48.87680275000001 ], [ 2.12462921, 48.876907109999983 ], [ 2.12469544, 48.876946529999984 ], [ 2.12474161, 48.87689946 ], [ 2.12477752, 48.87686247 ], [ 2.12473856, 48.87681635 ], [ 2.12470806, 48.87678262 ], [ 2.12470467, 48.876777 ], [ 2.12464191, 48.87672522 ], [ 2.12461989, 48.87670272 ], [ 2.12458935, 48.876675719999987 ], [ 2.12456559, 48.876655460000023 ], [ 2.12454018, 48.87662847 ], [ 2.12448929, 48.87658571 ], [ 2.12446047, 48.8765587 ], [ 2.12441128, 48.87651819 ], [ 2.12439263, 48.87650019 ], [ 2.12437736, 48.87648781 ], [ 2.12434515, 48.8764563 ], [ 2.12432988, 48.8764428 ], [ 2.12430277, 48.87641468 ], [ 2.1242519, 48.87636742 ], [ 2.12421294, 48.87632131 ], [ 2.1241875, 48.87629768 ], [ 2.12414686, 48.87625045 ], [ 2.1241333, 48.87623358 ], [ 2.12408416, 48.87618296 ], [ 2.12407398, 48.87617171 ], [ 2.12406552, 48.87616271000001 ], [ 2.12399603, 48.87609072 ], [ 2.12398077, 48.87607722 ], [ 2.12394177, 48.876041210000011 ], [ 2.12393837, 48.87603784 ], [ 2.12393329, 48.87603221 ], [ 2.12388072, 48.87598495 ], [ 2.12387055, 48.87597483 ], [ 2.12386376, 48.875968080000021 ], [ 2.12379091, 48.8758871 ], [ 2.12378922, 48.87588372 ], [ 2.12378754, 48.875879230000017 ], [ 2.12378586, 48.87587473 ], [ 2.12379101, 48.875866879999982 ], [ 2.12379613, 48.87586241 ], [ 2.1238371, 48.87583553 ], [ 2.12384393, 48.87583105 ], [ 2.12384563, 48.87583106000001 ], [ 2.12388645, 48.87584011 ], [ 2.12393391, 48.87588736 ], [ 2.12393732, 48.87588737 ], [ 2.12394071, 48.8758885 ], [ 2.12401048, 48.87589537 ], [ 2.12406497, 48.87589546 ], [ 2.12406495, 48.875896590000025 ], [ 2.12406665, 48.875896590000025 ], [ 2.12407678, 48.87591682 ], [ 2.12408862, 48.875935939999984 ], [ 2.12412091, 48.87594723 ], [ 2.12422459, 48.87598447 ], [ 2.12425522, 48.87599015 ], [ 2.12429094, 48.8759947 ], [ 2.12429264, 48.87599583 ], [ 2.1243333, 48.87604306 ], [ 2.12435024, 48.87606218 ], [ 2.12443698, 48.87607919 ], [ 2.12447271, 48.87608487 ], [ 2.1244727, 48.87608599 ], [ 2.12447441, 48.87608599 ], [ 2.12454185, 48.876238840000013 ], [ 2.1245705, 48.87630513 ], [ 2.12449719, 48.87633419 ], [ 2.12445626, 48.87634872000001 ], [ 2.12443241, 48.8763554 ], [ 2.12446462, 48.876385790000015 ], [ 2.12446632, 48.87638691 ], [ 2.12450365, 48.876412810000012 ], [ 2.12451559, 48.87640946 ], [ 2.12457182, 48.87639609 ], [ 2.12471835, 48.87636716 ], [ 2.12483255, 48.87633257 ], [ 2.12483426, 48.87633258 ], [ 2.12499541, 48.8764665 ], [ 2.12502522, 48.876259949999984 ], [ 2.12499989, 48.87621611 ], [ 2.12524012, 48.876168259999979 ], [ 2.12530309, 48.87617175 ], [ 2.12530649, 48.87617175 ], [ 2.12531669, 48.8761729 ], [ 2.1253184, 48.8761729 ], [ 2.12531501, 48.87617065 ], [ 2.12530483, 48.87616165 ], [ 2.12529635, 48.87615602000001 ], [ 2.12529468, 48.87614928 ], [ 2.12540038, 48.8761113 ], [ 2.12541402, 48.876107949999984 ], [ 2.12542081, 48.87611021 ], [ 2.12546153, 48.87614061 ], [ 2.12546835, 48.87614173 ], [ 2.12550406, 48.87614967 ], [ 2.12550576, 48.87615079 ], [ 2.12553462, 48.87616881 ], [ 2.12554655, 48.876166590000011 ], [ 2.12580396, 48.87608173 ], [ 2.12581249, 48.876078370000016 ], [ 2.12587898, 48.87605267 ], [ 2.12586172, 48.876111029999983 ], [ 2.12571646, 48.876243259999981 ], [ 2.12587615, 48.87632103 ], [ 2.12609701, 48.87642699 ], [ 2.12637964, 48.87641741 ], [ 2.12664158, 48.87646841 ], [ 2.1270968, 48.87630644 ], [ 2.12710745, 48.87660514 ], [ 2.12712772, 48.87664448000001 ], [ 2.12718552, 48.87666367 ], [ 2.12718551, 48.8766648 ], [ 2.12718722, 48.8766648 ], [ 2.12740892, 48.87697512 ], [ 2.12717526, 48.87707576 ], [ 2.12687037, 48.87711449 ], [ 2.12665669, 48.87732296 ], [ 2.12664981, 48.87733867 ], [ 2.12676788, 48.87760164 ], [ 2.1267471, 48.87768357 ], [ 2.126899, 48.87759065 ], [ 2.12709216, 48.8774046 ], [ 2.12720829, 48.87731948 ], [ 2.12738083, 48.87717607 ], [ 2.12760781, 48.877041739999981 ], [ 2.12763533, 48.87697666 ], [ 2.12770377, 48.87689482 ], [ 2.12774582, 48.8766108 ], [ 2.12775264, 48.87660633 ], [ 2.12774418, 48.87659733 ], [ 2.12773241, 48.876562500000013 ], [ 2.12730184, 48.87652915 ], [ 2.12732176, 48.87624621 ], [ 2.12735286, 48.87613736 ], [ 2.12752245, 48.87588727 ], [ 2.12756522, 48.875836810000017 ], [ 2.12756723, 48.87576607 ], [ 2.12757474, 48.875601019999984 ], [ 2.12721584, 48.87552625 ], [ 2.12777957, 48.87546553 ], [ 2.12783251, 48.875428570000018 ], [ 2.12783421, 48.875429700000012 ], [ 2.12792221, 48.875553380000021 ], [ 2.12792372, 48.87559717 ], [ 2.1280458, 48.87571418000001 ], [ 2.12810026, 48.87571651 ], [ 2.12824765, 48.87588859 ], [ 2.12824935, 48.87588971 ], [ 2.128268, 48.87590322 ], [ 2.12839168, 48.87604606 ], [ 2.12841031, 48.87607079 ], [ 2.12844756, 48.876119139999986 ], [ 2.12845096, 48.87611802 ], [ 2.12845608, 48.8761158 ], [ 2.12847312, 48.87611021 ], [ 2.12842777, 48.87596639 ], [ 2.12870213, 48.8758984 ], [ 2.1287346, 48.875868140000016 ], [ 2.12882584, 48.875626899999986 ], [ 2.12898586, 48.87562606 ], [ 2.12937157, 48.87579631 ], [ 2.12941644, 48.87565155 ], [ 2.12947435, 48.87564492 ], [ 2.12950331, 48.8756416 ], [ 2.12955971, 48.87558556 ], [ 2.12962638, 48.87551943 ], [ 2.12970852, 48.875417399999989 ], [ 2.12968491, 48.87536233 ], [ 2.12962424, 48.87521625 ], [ 2.12960061, 48.87516792 ], [ 2.12959728, 48.87515107000003 ], [ 2.12958717, 48.875126349999988 ], [ 2.12959403, 48.875114 ], [ 2.12964999, 48.87516352 ], [ 2.12977226, 48.87523448 ], [ 2.12991663, 48.87531559 ], [ 2.13010635, 48.87513179 ], [ 2.13015591, 48.87508359000001 ], [ 2.1302925, 48.87498727 ], [ 2.13046151, 48.874869670000017 ], [ 2.13050405, 48.87487536 ], [ 2.13067419, 48.87489813 ], [ 2.13096727, 48.87483128 ], [ 2.13094725, 48.87473019 ], [ 2.13094726, 48.87472907 ], [ 2.13089703, 48.874527980000011 ], [ 2.13085143, 48.87443919 ], [ 2.13083453, 48.87440884 ], [ 2.13083454, 48.87440772 ], [ 2.13089093, 48.87435393 ], [ 2.13086402, 48.87427639 ], [ 2.13077787, 48.87411567 ], [ 2.13069267, 48.87413797 ], [ 2.1306792, 48.87410089 ], [ 2.13067922, 48.8740964 ], [ 2.13082918, 48.8740585 ], [ 2.13086155, 48.87405181 ], [ 2.13108475, 48.87400056 ], [ 2.13153631, 48.87389246 ], [ 2.13154994, 48.87388912 ], [ 2.13166581, 48.87386125 ], [ 2.1315652, 48.87390374 ], [ 2.13163275, 48.87403748 ], [ 2.13152544, 48.87405189 ], [ 2.13118843, 48.87404117 ], [ 2.13113883, 48.87409835 ], [ 2.13105774, 48.87436096 ], [ 2.1311628, 48.87447681 ], [ 2.13117781, 48.87455207 ], [ 2.13118608, 48.87461047 ], [ 2.13121504, 48.87460267 ], [ 2.13129514, 48.87458259000001 ], [ 2.13129684, 48.874582600000011 ], [ 2.13132915, 48.87458939 ], [ 2.13155383, 48.87459429 ], [ 2.13188273, 48.87450954 ], [ 2.1320993, 48.87441897 ], [ 2.13213508, 48.87440894 ], [ 2.13216235, 48.874401120000016 ], [ 2.13260997, 48.87442214 ], [ 2.13264065, 48.87441321 ], [ 2.13271224, 48.87438975 ], [ 2.13294054, 48.87434188000001 ], [ 2.13302977, 48.87417024 ], [ 2.13308111, 48.87410408 ], [ 2.13311019, 48.87406708000001 ], [ 2.1331615, 48.874008779999976 ], [ 2.13320382, 48.87406612 ], [ 2.13372155, 48.8740109 ], [ 2.13373352, 48.873997450000019 ], [ 2.13373521, 48.873997450000012 ], [ 2.13373691, 48.873998580000013 ], [ 2.13373861, 48.8739997 ], [ 2.13374031, 48.87400082 ], [ 2.13376272, 48.87393125 ], [ 2.1340094, 48.87396762 ], [ 2.13424813, 48.873868109999982 ], [ 2.13441501, 48.87385493 ], [ 2.13444737, 48.873850489999988 ], [ 2.13465516, 48.87382167 ], [ 2.13469099, 48.873800399999986 ], [ 2.13469953, 48.87379593 ], [ 2.1347098, 48.87378359 ], [ 2.1347252, 48.87376228 ], [ 2.1347321, 48.87373872 ], [ 2.13474761, 48.87369158 ], [ 2.13479713, 48.87365461 ], [ 2.13483128, 48.87362997 ], [ 2.13483297, 48.87362997 ], [ 2.13484999, 48.87363225 ], [ 2.13486701, 48.87363452 ], [ 2.13498779, 48.87365158 ], [ 2.13506421, 48.87369775 ], [ 2.13514402, 48.87374731 ], [ 2.13518811, 48.8737878 ], [ 2.13530399, 48.87375657 ], [ 2.13537899, 48.87373536 ], [ 2.1354165, 48.873718590000017 ], [ 2.13543525, 48.873710760000016 ], [ 2.13544719, 48.873706290000015 ], [ 2.13546594, 48.87369846 ], [ 2.13553075, 48.87367051 ], [ 2.13553425, 48.87364581 ], [ 2.13553599, 48.873634580000015 ], [ 2.135536, 48.87363346 ], [ 2.13554791, 48.87363348 ], [ 2.13557004, 48.87363465 ], [ 2.13567928, 48.87356185 ], [ 2.13573387, 48.873534989999982 ], [ 2.13577309, 48.8735171 ], [ 2.13580377, 48.87350704 ], [ 2.13590944, 48.87347355 ], [ 2.13591115, 48.87347355 ], [ 2.13601648, 48.873524260000011 ], [ 2.13608812, 48.87348845 ], [ 2.13610688, 48.87347951 ], [ 2.13621776, 48.873420190000019 ], [ 2.1362331, 48.873417970000013 ], [ 2.13633527, 48.87340917 ], [ 2.13636764, 48.873402490000011 ], [ 2.13646815, 48.87338357 ], [ 2.13647496, 48.873380220000016 ], [ 2.1368737, 48.873277620000017 ], [ 2.13692156, 48.87323054 ], [ 2.13701555, 48.87314088 ], [ 2.13709045, 48.87314325 ], [ 2.13719767, 48.873146799999979 ], [ 2.13746807, 48.87320791 ], [ 2.13755992, 48.87322829 ], [ 2.13758712, 48.87323732 ], [ 2.13763981, 48.87325538 ], [ 2.13764322, 48.873255379999982 ], [ 2.13795285, 48.87330084 ], [ 2.13797326, 48.87330424 ], [ 2.13810922, 48.87336174 ], [ 2.13822671, 48.87335072 ], [ 2.13846856, 48.8733197 ], [ 2.1385299, 48.87330183 ], [ 2.13854184, 48.873298490000018 ], [ 2.13854354, 48.8732985 ], [ 2.13863536, 48.87332336 ], [ 2.13872183, 48.873409969999983 ], [ 2.13873648, 48.873576180000022 ], [ 2.13873816, 48.87358517 ], [ 2.13881119, 48.87362571 ], [ 2.13892159, 48.87368654 ], [ 2.1390047, 48.87376529 ], [ 2.13917767, 48.873926160000011 ], [ 2.13917598, 48.87392615000001 ], [ 2.13917768, 48.87392729 ], [ 2.13864869, 48.87382082 ], [ 2.13830935, 48.87396844 ], [ 2.13833943, 48.87410998 ], [ 2.13827101, 48.87419183 ], [ 2.13841661, 48.87439196 ], [ 2.13846567, 48.87446952 ], [ 2.13846006, 48.87459303 ], [ 2.13857696, 48.87473247 ], [ 2.13864475, 48.87481007 ], [ 2.1388142, 48.87458017 ], [ 2.13884856, 48.87449826 ], [ 2.13886061, 48.874469080000011 ], [ 2.13898371, 48.8743323 ], [ 2.13899453, 48.87417737 ], [ 2.13899991, 48.87411 ], [ 2.13915177, 48.87402268 ], [ 2.13925413, 48.87396447 ], [ 2.13929145, 48.87399822 ], [ 2.13931859, 48.87402409 ], [ 2.13931691, 48.87401735 ], [ 2.13930348, 48.87396905 ], [ 2.13934453, 48.87391858 ], [ 2.13924103, 48.873831939999988 ], [ 2.1392122, 48.873807190000015 ], [ 2.13917159, 48.87374649 ], [ 2.13916652, 48.8737375 ], [ 2.13907868, 48.873564419999987 ], [ 2.13906365, 48.873491409999986 ], [ 2.13904697, 48.8734094 ], [ 2.13910369, 48.873272519999986 ], [ 2.13911743, 48.87324222 ], [ 2.13932193, 48.87318082 ], [ 2.13939692, 48.87315849 ], [ 2.13927534, 48.87333906 ], [ 2.13974185, 48.87331741 ], [ 2.14017364, 48.873034070000017 ], [ 2.13992399, 48.87288879 ], [ 2.1399087, 48.87287978 ], [ 2.13987804, 48.87288534 ], [ 2.13987634, 48.87288534 ], [ 2.13990874, 48.87287192 ], [ 2.13991725, 48.87287193 ], [ 2.13992576, 48.8728697 ], [ 2.13992747, 48.8728697 ], [ 2.14028824, 48.8728984 ], [ 2.14061879, 48.87281699 ], [ 2.14083337, 48.87279042 ], [ 2.14093893, 48.87278498 ], [ 2.14120112, 48.87277196 ], [ 2.14120283, 48.87277195 ], [ 2.14126739, 48.87280463 ], [ 2.14128777, 48.87281478 ], [ 2.14128947, 48.8728159 ], [ 2.14134874, 48.87289348 ], [ 2.14136061, 48.87290585 ], [ 2.14137079, 48.872913730000015 ], [ 2.14139289, 48.87292051 ], [ 2.14149492, 48.87294875 ], [ 2.14169721, 48.87302096 ], [ 2.14187257, 48.87301341 ], [ 2.14187427, 48.87301341 ], [ 2.14188617, 48.87301455 ], [ 2.14192701, 48.87301799 ], [ 2.14193383, 48.87301912 ], [ 2.1421901, 48.87321382 ], [ 2.14229517, 48.873330780000011 ], [ 2.14236315, 48.87336008 ], [ 2.14238524, 48.87336798 ], [ 2.14240226, 48.873374750000018 ], [ 2.14239383, 48.873350030000026 ], [ 2.14238535, 48.87334328 ], [ 2.14238365, 48.87334215 ], [ 2.14237182, 48.873323049999989 ], [ 2.14236335, 48.87330956 ], [ 2.1423532, 48.87329382 ], [ 2.14234981, 48.87328932 ], [ 2.14234473, 48.87328145 ], [ 2.14232781, 48.8732556 ], [ 2.14232782, 48.87325448 ], [ 2.14239426, 48.87324 ], [ 2.14240275, 48.873247869999986 ], [ 2.14242309, 48.87326810999997 ], [ 2.14294575, 48.87325103 ], [ 2.14297813, 48.87324324 ], [ 2.14298664, 48.873241 ], [ 2.14299856, 48.8732399 ], [ 2.14308029, 48.87323555 ], [ 2.14326075, 48.87322911 ], [ 2.14332549, 48.87321462 ], [ 2.1433306, 48.87321352 ], [ 2.14336979, 48.87320347 ], [ 2.14349237, 48.87320144 ], [ 2.14349407, 48.87320144 ], [ 2.14355024, 48.87320153 ], [ 2.14379026, 48.873201940000015 ], [ 2.14379366, 48.87320195 ], [ 2.14379536, 48.87320195 ], [ 2.1438158, 48.87319749000001 ], [ 2.1440492, 48.87315184 ], [ 2.14409353, 48.873132829999989 ], [ 2.14411057, 48.87312612 ], [ 2.14426048, 48.87309943 ], [ 2.14431155, 48.87309502 ], [ 2.14440153, 48.8731603 ], [ 2.1444117, 48.8731693 ], [ 2.14443885, 48.873190679999986 ], [ 2.14456292, 48.87324479 ], [ 2.14466318, 48.87328875 ], [ 2.14474488, 48.873288890000012 ], [ 2.14474658, 48.873288890000019 ], [ 2.14475339, 48.87329003 ], [ 2.14480444, 48.8732946 ], [ 2.14489124, 48.87329812 ], [ 2.14490997, 48.87329815 ], [ 2.14492019, 48.87329592 ], [ 2.14497982, 48.87328143 ], [ 2.14503258, 48.87328488 ], [ 2.14503768, 48.87328489 ], [ 2.1450462, 48.873284909999981 ], [ 2.14508706, 48.8732816 ], [ 2.14517043, 48.87329072 ], [ 2.14522827, 48.87330205 ], [ 2.14526737, 48.87331559 ], [ 2.14526907, 48.87331672 ], [ 2.14527587, 48.87331785 ], [ 2.14533712, 48.87332918 ], [ 2.14542743, 48.87330351 ], [ 2.14547167, 48.87330583 ], [ 2.14547679, 48.87330583 ], [ 2.14557385, 48.873298139999989 ], [ 2.14560098, 48.87332513 ], [ 2.14562642, 48.87334988 ], [ 2.14569274, 48.87336347 ], [ 2.14572845, 48.873377 ], [ 2.14578966, 48.87339282 ], [ 2.14581347, 48.8733996 ], [ 2.14585768, 48.873412020000018 ], [ 2.1458866, 48.87341432 ], [ 2.14590874, 48.87341661 ], [ 2.14592234, 48.87341775 ], [ 2.14592915, 48.87341776 ], [ 2.14618107, 48.87342268 ], [ 2.14622033, 48.87339579 ], [ 2.1462374, 48.87338234 ], [ 2.1462391, 48.87338235 ], [ 2.14656244, 48.87340534 ], [ 2.14663879, 48.87346948 ], [ 2.14668114, 48.873527929999987 ], [ 2.14674906, 48.873568470000016 ], [ 2.14677794, 48.87358536 ], [ 2.14684084, 48.873604549999989 ], [ 2.1470379, 48.87371156 ], [ 2.14710244, 48.8737476 ], [ 2.147264, 48.87379166 ], [ 2.14730998, 48.873785 ], [ 2.14730998, 48.87378611 ], [ 2.14731168, 48.87378613 ], [ 2.14731675, 48.873796240000011 ], [ 2.14735421, 48.8737963 ], [ 2.14742751, 48.87376947 ], [ 2.14747012, 48.873754950000013 ], [ 2.14754852, 48.873728119999988 ], [ 2.14756045, 48.87372478 ], [ 2.14757579, 48.873720309999989 ], [ 2.14765732, 48.87376536 ], [ 2.14769312, 48.87375419 ], [ 2.14775618, 48.87373296 ], [ 2.14783829, 48.87362755 ], [ 2.14784683, 48.87361971 ], [ 2.14785708, 48.87360848 ], [ 2.14789283, 48.87361079 ], [ 2.14780961, 48.873557880000014 ], [ 2.14781132, 48.87355788 ], [ 2.14781302, 48.87355789 ], [ 2.14781471, 48.87355789 ], [ 2.14781643, 48.87355789 ], [ 2.14781814, 48.873557899999987 ], [ 2.14781983, 48.8735579 ], [ 2.14809707, 48.87362011 ], [ 2.14815649, 48.873659510000017 ], [ 2.14820573, 48.873691040000018 ], [ 2.14821593, 48.87369779 ], [ 2.14822611, 48.87370454 ], [ 2.1482619, 48.87369449 ], [ 2.14826871, 48.87369338 ], [ 2.14827896, 48.87368442 ], [ 2.14828408, 48.87367994 ], [ 2.14828578, 48.87367994 ], [ 2.14829598, 48.87368557 ], [ 2.14832147, 48.873697969999981 ], [ 2.14842506, 48.873761020000018 ], [ 2.14842676, 48.87376215 ], [ 2.14843693, 48.87377226 ], [ 2.14852355, 48.873827429999984 ], [ 2.14859656, 48.87387584 ], [ 2.14865261, 48.87390737 ], [ 2.14866281, 48.873913 ], [ 2.14868148, 48.87392426000001 ], [ 2.14873075, 48.87395129 ], [ 2.14890569, 48.874054889999989 ], [ 2.14893626, 48.87407739 ], [ 2.14893794, 48.87407852 ], [ 2.14894645, 48.8740819 ], [ 2.14904501, 48.8741281 ], [ 2.14909256, 48.87415737 ], [ 2.14909765, 48.87415962 ], [ 2.14921989, 48.87424517 ], [ 2.14925726, 48.87426768000001 ], [ 2.14940676, 48.87434878 ], [ 2.14949678, 48.87440282 ], [ 2.14956642, 48.87444112 ], [ 2.14970398, 48.87452893 ], [ 2.14972769, 48.874561529999987 ], [ 2.14973618, 48.8745649 ], [ 2.1497498, 48.87456942999998 ], [ 2.14976849, 48.87457506 ], [ 2.1497855, 48.87457959000001 ], [ 2.14983305, 48.87461223 ], [ 2.14988226, 48.874649370000014 ], [ 2.14991452, 48.87467525 ], [ 2.1499841, 48.87473151 ], [ 2.1499858, 48.874732630000011 ], [ 2.15013173, 48.874857509999984 ], [ 2.15017583, 48.874896879999987 ], [ 2.15041505, 48.875110620000015 ], [ 2.15042862, 48.87512749 ], [ 2.15043032, 48.8751286 ], [ 2.1504337, 48.87513198 ], [ 2.15056608, 48.87524112 ], [ 2.15068146, 48.87534013 ], [ 2.15068486, 48.87534237 ], [ 2.15068655, 48.8753435 ], [ 2.15068656, 48.87534462 ], [ 2.15068826, 48.87534574 ], [ 2.15069163, 48.87535024 ], [ 2.15074733, 48.87548171 ], [ 2.15075746, 48.87550419 ], [ 2.15075744, 48.87550531 ], [ 2.15075574, 48.87550867 ], [ 2.15075402, 48.875510920000018 ], [ 2.1507506, 48.875514270000011 ], [ 2.15068572, 48.875569200000015 ], [ 2.15067883, 48.87558603 ], [ 2.15068377, 48.87563319 ], [ 2.15068375, 48.87563881 ], [ 2.15070413, 48.875650070000013 ], [ 2.15118996, 48.87592933 ], [ 2.15121712, 48.87594959 ], [ 2.15141241, 48.87607679 ], [ 2.15150408, 48.87614656 ], [ 2.1515635, 48.87619045000001 ], [ 2.15157877, 48.876201709999968 ], [ 2.15158216, 48.87620845 ], [ 2.15163287, 48.87630398 ], [ 2.15165491, 48.87632984 ], [ 2.15172114, 48.876370360000017 ], [ 2.15184521, 48.87642895 ], [ 2.15187408, 48.87644248 ], [ 2.15187405, 48.87645259 ], [ 2.15187397, 48.87647617 ], [ 2.15189771, 48.87649754 ], [ 2.1519079, 48.87650766 ], [ 2.15190105, 48.87651439 ], [ 2.15195527, 48.87658522000001 ], [ 2.15201798, 48.87666055 ], [ 2.15202129, 48.87668301 ], [ 2.15210966, 48.87673032 ], [ 2.1521895, 48.87677311 ], [ 2.15222861, 48.87678553 ], [ 2.15223536, 48.876800139999986 ], [ 2.1522507, 48.87679343 ], [ 2.15229336, 48.87676767 ], [ 2.15229677, 48.87676543 ], [ 2.1523599, 48.87673072 ], [ 2.15236159, 48.87673072 ], [ 2.15236671, 48.876729610000012 ], [ 2.15238539, 48.876743110000021 ], [ 2.15242613, 48.8767735 ], [ 2.15243631, 48.87678138 ], [ 2.15254834, 48.876870270000012 ], [ 2.15324767, 48.877422719999984 ], [ 2.15328128, 48.8775418 ], [ 2.15329318, 48.87754631 ], [ 2.15335608, 48.87757112 ], [ 2.15340378, 48.87756446 ], [ 2.15344618, 48.87760832 ], [ 2.15345974, 48.877622940000023 ], [ 2.15345632, 48.87762518 ], [ 2.15345461, 48.8776263 ], [ 2.15345121, 48.87762853 ], [ 2.15339325, 48.87764754 ], [ 2.1534187, 48.87767341 ], [ 2.15339325, 48.87764866 ], [ 2.15323985, 48.87770007 ], [ 2.15319373, 48.877740410000015 ], [ 2.15321539, 48.87786734 ], [ 2.15330925, 48.877805730000013 ], [ 2.15331096, 48.87780573 ], [ 2.15339599, 48.8778272 ], [ 2.15343339, 48.87783961 ], [ 2.15347761, 48.87785316 ], [ 2.15348097, 48.87786552 ], [ 2.15349606, 48.87792842 ], [ 2.1534057, 48.87796533 ], [ 2.15336286, 48.87803825 ], [ 2.15335768, 48.87805845 ], [ 2.15337637, 48.87806971 ], [ 2.15339342, 48.878064119999983 ], [ 2.15340194, 48.87806189 ], [ 2.15340364, 48.87806302 ], [ 2.15341382, 48.878069770000018 ], [ 2.1534393, 48.87808778 ], [ 2.15344438, 48.8780934 ], [ 2.15344608, 48.87809453 ], [ 2.15356203, 48.87804531 ], [ 2.15359779, 48.87803862 ], [ 2.15358756, 48.87804423 ], [ 2.15357035, 48.878098089999988 ], [ 2.15358053, 48.87810372 ], [ 2.15359758, 48.87809589 ], [ 2.153601, 48.87809478 ], [ 2.15360611, 48.878095909999985 ], [ 2.15363332, 48.878102679999984 ], [ 2.15372162, 48.87816347 ], [ 2.15378104, 48.87820510000001 ], [ 2.15380482, 48.87822199 ], [ 2.15383368, 48.87824337 ], [ 2.15382185, 48.87822314 ], [ 2.15383538, 48.87824449 ], [ 2.1539033, 48.87829289 ], [ 2.15394064, 48.87832102 ], [ 2.15398988, 48.87835815 ], [ 2.15402042, 48.87838852 ], [ 2.15405093, 48.87842338 ], [ 2.15407806, 48.87845261 ], [ 2.15409163, 48.87846612 ], [ 2.15418153, 48.87855497 ], [ 2.15421713, 48.87859545 ], [ 2.15421712, 48.87859656 ], [ 2.15426123, 48.87864155 ], [ 2.15437643, 48.87879445 ], [ 2.15441033, 48.8788383 ], [ 2.15441202, 48.87884167 ], [ 2.15442893, 48.87886976 ], [ 2.15442546, 48.878887729999981 ], [ 2.15442716, 48.87888998 ], [ 2.15455429, 48.87904065 ], [ 2.15455598, 48.87904514 ], [ 2.15455938, 48.87904289 ], [ 2.15456277, 48.87904852 ], [ 2.15457632, 48.87906426 ], [ 2.15457292, 48.87906537 ], [ 2.1545388, 48.87908778 ], [ 2.15455741, 48.87911813 ], [ 2.15463535, 48.87921707 ], [ 2.15464213, 48.8792283 ], [ 2.1546472, 48.879238420000014 ], [ 2.15465056, 48.879250780000014 ], [ 2.1546556, 48.8792665 ], [ 2.15469122, 48.87930361 ], [ 2.15472513, 48.8793396 ], [ 2.15475235, 48.87934862 ], [ 2.15477265, 48.87938346 ], [ 2.15483186, 48.87948574 ], [ 2.15486569, 48.87954644 ], [ 2.15488429, 48.879577910000016 ], [ 2.15489614, 48.87959926 ], [ 2.15496721, 48.8797184 ], [ 2.15503145, 48.87983977 ], [ 2.15507207, 48.87990496 ], [ 2.15512963, 48.87999713 ], [ 2.15514823, 48.88002636 ], [ 2.15518885, 48.88009267 ], [ 2.15524975, 48.88019832 ], [ 2.15529037, 48.88026688 ], [ 2.15532262, 48.880291630000016 ], [ 2.15542414, 48.88046471 ], [ 2.15546985, 48.8805344 ], [ 2.15548679, 48.88056026 ], [ 2.15556974, 48.88068953 ], [ 2.15561036, 48.88075472 ], [ 2.15562221, 48.88077383 ], [ 2.15567299, 48.880853620000018 ], [ 2.15573051, 48.88095477 ], [ 2.15578802, 48.88105481 ], [ 2.155787875255129, 48.881096691399343 ], [ 2.156119234946512, 48.881032497087212 ], [ 2.15609809, 48.881001400000017 ], [ 2.15601304, 48.880978809999988 ], [ 2.15582366, 48.88062143 ], [ 2.15576788, 48.880513549999989 ], [ 2.15576959, 48.88050794 ], [ 2.15571042, 48.88039219 ], [ 2.15554281, 48.88013815 ], [ 2.15527023, 48.87972 ], [ 2.15516187, 48.87955813 ], [ 2.15502653, 48.879322110000011 ], [ 2.15492485, 48.87919507 ], [ 2.15476062, 48.87895002 ], [ 2.15463863, 48.87878813 ], [ 2.15453204, 48.87860718 ], [ 2.15440339, 48.878407100000011 ], [ 2.15433222, 48.87831603 ], [ 2.15423552, 48.87822605 ], [ 2.15414895, 48.878156290000014 ], [ 2.15398476, 48.877901129999984 ], [ 2.15371362, 48.87756046 ], [ 2.15360169, 48.87744463 ], [ 2.15347783, 48.87733214 ], [ 2.15322153, 48.87712849 ], [ 2.15312825, 48.87703401000001 ], [ 2.15282937, 48.876834790000011 ], [ 2.15254759, 48.87661313000001 ], [ 2.15240505, 48.8764905 ], [ 2.15215712, 48.87632503 ], [ 2.15192798, 48.87614276 ], [ 2.15180415, 48.87602465 ], [ 2.15131368, 48.87562075 ], [ 2.15053812, 48.874977199999982 ], [ 2.15006647, 48.87455534 ], [ 2.14998839, 48.8744957 ], [ 2.14986784, 48.87441242 ], [ 2.14884887, 48.87377407000001 ], [ 2.14858739, 48.87359846 ], [ 2.14846858, 48.87350957000001 ], [ 2.14800484, 48.87324941 ], [ 2.14760571, 48.873014070000018 ], [ 2.14742745, 48.87289026 ], [ 2.14742746, 48.87288914 ], [ 2.14742745, 48.87288801 ], [ 2.14736633, 48.87284749 ], [ 2.14728653, 48.872795700000012 ], [ 2.14727634, 48.87278895 ], [ 2.14661402, 48.87238249 ], [ 2.14629295, 48.8722124 ], [ 2.14579684, 48.87197127000001 ], [ 2.14559632, 48.87188110000001 ], [ 2.14483505, 48.87153847 ], [ 2.14463794, 48.871452799999986 ], [ 2.14438465, 48.87136704000001 ], [ 2.1440514, 48.87126654 ], [ 2.14386775, 48.871217939999987 ], [ 2.14329818, 48.871051909999984 ], [ 2.14287984, 48.87095014 ], [ 2.14225904, 48.8708222 ], [ 2.14132505, 48.87069372 ], [ 2.14096769, 48.87067178 ], [ 2.14092515, 48.87066721 ], [ 2.14091835, 48.87066607 ], [ 2.14082819, 48.87065132 ], [ 2.14084009, 48.87065921 ], [ 2.14067333, 48.870643200000025 ], [ 2.1387244, 48.870631969999984 ], [ 2.13850309, 48.8706372 ], [ 2.13835665, 48.87065266 ], [ 2.13812353, 48.87063317 ], [ 2.13793118, 48.870633959999985 ], [ 2.13776781, 48.87062469 ], [ 2.13758576, 48.87060529 ], [ 2.13754828, 48.87061084 ], [ 2.13754797, 48.87069168 ], [ 2.13754788, 48.87071077 ], [ 2.13754731, 48.87085225 ], [ 2.13757623, 48.87085904 ], [ 2.13757962, 48.87086241 ], [ 2.1375575, 48.87086012 ], [ 2.13757448, 48.8708725 ], [ 2.13757277, 48.87087363 ], [ 2.13757444, 48.87088149 ], [ 2.13757612, 48.8708871 ], [ 2.13760496, 48.87091074 ], [ 2.13760974, 48.870991600000011 ], [ 2.13761993, 48.87099947 ], [ 2.13765217, 48.871020869999988 ], [ 2.13763164, 48.87104778 ], [ 2.1376212, 48.87110278 ], [ 2.13761426, 48.87113871 ], [ 2.13762412, 48.87122743 ], [ 2.13762071, 48.87122742 ], [ 2.13763737, 48.87131728 ], [ 2.13764402, 48.87135772 ], [ 2.13764735, 48.87137568 ], [ 2.13767262, 48.87144085 ], [ 2.1376776, 48.87147119 ], [ 2.13768416, 48.871536320000011 ], [ 2.1376788, 48.871598070000012 ], [ 2.13769895, 48.8716666 ], [ 2.1377191, 48.87173738 ], [ 2.13773586, 48.87180029000001 ], [ 2.13776452, 48.8718722 ] ] ] ] } }
]
}
