{
"type": "FeatureCollection",
"name": "prse3_grille",
"crs": { "type": "name", "properties": { "name": "urn:ogc:def:crs:OGC:1.3:CRS84" } },
"features": [
{ "type": "Feature", "properties": { "num500": 26271, "sco_env": 7.72021108, "cl_env": 1, "sco_envuln": 5.00089782, "cl_envuln": 1, "propair": 51.89051249, "propbruit": 15.32789134, "propeau": 0.0, "propssp": 4.07122064, "propied": 0.0, "pop_2016": 13.0 }, "geometry": { "type": "Polygon", "coordinates": [ [ [ 2.113678349758848, 48.881734907126599 ], [ 2.113601818666804, 48.886231116934837 ], [ 2.120419700011607, 48.886281397330038 ], [ 2.120495642549584, 48.88178518338632 ], [ 2.113678349758848, 48.881734907126599 ] ] ] } },
{ "type": "Feature", "properties": { "num500": 26272, "sco_env": 8.31858045, "cl_env": 2, "sco_envuln": 5.38850174, "cl_envuln": 1, "propair": 49.73324125, "propbruit": 18.76007438, "propeau": 0.0, "propssp": 1.92063708, "propied": 0.0, "pop_2016": 291.0 }, "geometry": { "type": "Polygon", "coordinates": [ [ [ 2.113601818666804, 48.886231116934837 ], [ 2.113525274357734, 48.890727308297976 ], [ 2.120343744358221, 48.890777592829018 ], [ 2.120419700011607, 48.886281397330038 ], [ 2.113601818666804, 48.886231116934837 ] ] ] } },
{ "type": "Feature", "properties": { "num500": 26530, "sco_env": 11.38401166, "cl_env": 2, "sco_envuln": 5.73642134, "cl_envuln": 1, "propair": 37.34917883, "propbruit": 26.80486972, "propeau": 0.0, "propssp": 5.80928847, "propied": 0.0, "pop_2016": 188.0 }, "geometry": { "type": "Polygon", "coordinates": [ [ [ 2.120647488292907, 48.872792700279717 ], [ 2.120571571975553, 48.877288951026628 ], [ 2.127388289422429, 48.877338834995292 ], [ 2.127463617385482, 48.87284258014558 ], [ 2.120647488292907, 48.872792700279717 ] ] ] } },
{ "type": "Feature", "properties": { "num500": 26531, "sco_env": 10.47267417, "cl_env": 2, "sco_envuln": 6.7832103, "cl_envuln": 2, "propair": 41.33138477, "propbruit": 11.34147141, "propeau": 0.0, "propssp": 25.78808849, "propied": 0.0, "pop_2016": 106.0 }, "geometry": { "type": "Polygon", "coordinates": [ [ [ 2.120571571975553, 48.877288951026628 ], [ 2.120495642549584, 48.88178518338632 ], [ 2.12731294845233, 48.881835071458127 ], [ 2.127388289422429, 48.877338834995292 ], [ 2.120571571975553, 48.877288951026628 ] ] ] } },
{ "type": "Feature", "properties": { "num500": 26791, "sco_env": 11.30024559, "cl_env": 2, "sco_envuln": 5.69421149, "cl_envuln": 1, "propair": 40.93577799, "propbruit": 30.00307456, "propeau": 0.0, "propssp": 0.0, "propied": 0.0, "pop_2016": 1049.0 }, "geometry": { "type": "Polygon", "coordinates": [ [ [ 2.127463617385482, 48.87284258014558 ], [ 2.127388289422429, 48.877338834995292 ], [ 2.134205019876353, 48.877388330806838 ], [ 2.134279759481736, 48.872892071886305 ], [ 2.127463617385482, 48.87284258014558 ] ] ] } },
{ "type": "Feature", "properties": { "num500": 27051, "sco_env": 11.95416091, "cl_env": 2, "sco_envuln": 6.58538172, "cl_envuln": 1, "propair": 46.35114756, "propbruit": 35.16344985, "propeau": 0.0, "propssp": 2.14489626, "propied": 0.0, "pop_2016": 350.0 }, "geometry": { "type": "Polygon", "coordinates": [ [ [ 2.134354486184983, 48.868395794608041 ], [ 2.134279759481736, 48.872892071886305 ], [ 2.141095914480127, 48.872941175500792 ], [ 2.141170052923905, 48.868444894184002 ], [ 2.134354486184983, 48.868395794608041 ] ] ] } },
{ "type": "Feature", "properties": { "num500": 27052, "sco_env": 11.73224907, "cl_env": 2, "sco_envuln": 7.02286761, "cl_envuln": 2, "propair": 50.07103525, "propbruit": 27.86274508, "propeau": 0.0, "propssp": 0.72629188, "propied": 0.0, "pop_2016": 1315.0 }, "geometry": { "type": "Polygon", "coordinates": [ [ [ 2.134279759481736, 48.872892071886305 ], [ 2.134205019876353, 48.877388330806838 ], [ 2.141021763235754, 48.87743743846022 ], [ 2.141095914480127, 48.872941175500792 ], [ 2.134279759481736, 48.872892071886305 ] ] ] } },
{ "type": "Feature", "properties": { "num500": 27053, "sco_env": 14.53764307, "cl_env": 2, "sco_envuln": 8.70135468, "cl_envuln": 2, "propair": 32.62827797, "propbruit": 16.82122053, "propeau": 0.0, "propssp": 0.60510554, "propied": 0.0, "pop_2016": 1196.0 }, "geometry": { "type": "Polygon", "coordinates": [ [ [ 2.134205019876353, 48.877388330806838 ], [ 2.134130267365491, 48.881884571340876 ], [ 2.140947599187473, 48.881933683033559 ], [ 2.141021763235754, 48.87743743846022 ], [ 2.134205019876353, 48.877388330806838 ] ] ] } },
{ "type": "Feature", "properties": { "num500": 27054, "sco_env": 12.14270015, "cl_env": 2, "sco_envuln": 6.37015338, "cl_envuln": 1, "propair": 41.29172088, "propbruit": 19.21775154, "propeau": 0.0, "propssp": 0.0, "propied": 0.0, "pop_2016": 936.0 }, "geometry": { "type": "Polygon", "coordinates": [ [ [ 2.134130267365491, 48.881884571340876 ], [ 2.134055501945807, 48.886380793459722 ], [ 2.140873422331967, 48.886429909192081 ], [ 2.140947599187473, 48.881933683033559 ], [ 2.134130267365491, 48.881884571340876 ] ] ] } },
{ "type": "Feature", "properties": { "num500": 27313, "sco_env": 11.81987621, "cl_env": 2, "sco_envuln": 6.51075978, "cl_envuln": 1, "propair": 44.43628649, "propbruit": 24.42476046, "propeau": 0.0, "propssp": 0.72177675, "propied": 0.0, "pop_2016": 1109.0 }, "geometry": { "type": "Polygon", "coordinates": [ [ [ 2.141095914480127, 48.872941175500792 ], [ 2.141021763235754, 48.87743743846022 ], [ 2.147838519399065, 48.877486157954408 ], [ 2.14791208227911, 48.872989890987988 ], [ 2.141095914480127, 48.872941175500792 ] ] ] } },
{ "type": "Feature", "properties": { "num500": 27314, "sco_env": 13.33574698, "cl_env": 2, "sco_envuln": 7.98197231, "cl_envuln": 2, "propair": 42.96702278, "propbruit": 25.12922046, "propeau": 0.0, "propssp": 3.25845898, "propied": 0.0, "pop_2016": 1828.0 }, "geometry": { "type": "Polygon", "coordinates": [ [ [ 2.141021763235754, 48.87743743846022 ], [ 2.140947599187473, 48.881933683033559 ], [ 2.147764943816681, 48.88198240653513 ], [ 2.147838519399065, 48.877486157954408 ], [ 2.141021763235754, 48.87743743846022 ] ] ] } },
{ "type": "Feature", "properties": { "num500": 27574, "sco_env": 8.37574898, "cl_env": 2, "sco_envuln": 4.62461094, "cl_envuln": 1, "propair": 50.54445317, "propbruit": 24.95716162, "propeau": 0.0, "propssp": 0.95516426, "propied": 0.0, "pop_2016": 318.0 }, "geometry": { "type": "Polygon", "coordinates": [ [ [ 2.14791208227911, 48.872989890987988 ], [ 2.147838519399065, 48.877486157954408 ], [ 2.154655288264713, 48.877534489288358 ], [ 2.154728262777143, 48.873038218346856 ], [ 2.14791208227911, 48.872989890987988 ] ] ] } },
{ "type": "Feature", "properties": { "num500": 27575, "sco_env": 9.82684143, "cl_env": 2, "sco_envuln": 5.42528279, "cl_envuln": 1, "propair": 56.11240757, "propbruit": 25.05588752, "propeau": 0.0, "propssp": 0.84063926, "propied": 0.0, "pop_2016": 661.0 }, "geometry": { "type": "Polygon", "coordinates": [ [ [ 2.147838519399065, 48.877486157954408 ], [ 2.147764943816681, 48.88198240653513 ], [ 2.154582301151517, 48.882030741844531 ], [ 2.154655288264713, 48.877534489288358 ], [ 2.147838519399065, 48.877486157954408 ] ] ] } }
]
}
